{"type":"FeatureCollection","features":[{"type":"Feature","properties":{"distributor":"Western Power","state":"WA","outageUrl":"https://www.westernpower.com.au/faults-outages/power-outages/","color":"#2980b9"},"geometry":{"type":"Polygon","coordinates":[[[122.63243369474694,-33.937429268748026],[122.5651243806705,-34.00326815431636],[122.35578550537988,-33.96186633875554],[122.27546833374622,-34.064473557841545],[122.09250342911656,-34.064199848867936],[121.99496494474405,-33.8722802062631],[121.79603989175266,-33.94260916842439],[121.34012171770023,-33.86006747389027],[121.16665754519815,-33.913570237142636],[120.58142644263093,-33.93550610473703],[120.39718311763855,-34.018518892239555],[120.00582379114492,-33.97214773826233],[119.82666134033586,-34.026614978933466],[119.61354126690415,-34.166245569536954],[119.5285075042822,-34.30262524825357],[119.60025754866913,-34.36598497956514],[119.58066564606139,-34.42338056335011],[119.43882919993953,-34.418385246902886],[119.3915629830349,-34.53141097023901],[119.30770909443514,-34.5088051202977],[119.23624610593268,-34.57727415759209],[118.93414444835693,-34.504650531790695],[118.79540847478597,-34.58150163063499],[118.74847336305928,-34.673164303503775],[118.46803469026396,-34.78641745671012],[118.42464999238541,-34.93815230198621],[118.22936322787893,-34.97916812436574],[118.2103861636939,-35.06047185440815],[118.01752574682968,-35.04651036094366],[118.0362756686137,-35.114950586403076],[117.93743698618745,-35.16480450871116],[117.70137705717922,-35.098217834954944],[117.6133443249559,-35.18174218381406],[117.20891915900577,-35.053384000332834],[117.14234567920715,-35.10767626329167],[116.74326301118316,-35.05337995286527],[116.63094558520233,-35.09513500527848],[116.35037677416128,-34.958064643471864],[115.9597901723333,-34.87638775681032],[115.87905584456193,-34.7293085710558],[115.58918209089099,-34.48489762574118],[115.27972961869595,-34.34620160741726],[115.10551793218438,-34.406233254421686],[114.96970733978256,-34.26043216175828],[114.91677587063072,-33.883971354659224],[114.94868116727801,-33.49740389172311],[115.00193704314438,-33.47864796924015],[115.20640104509881,-33.59837527437324],[115.35123711056565,-33.58705284648723],[115.48098618094221,-33.483148782748025],[115.62301067379893,-33.26351345300963],[115.62943581266417,-33.028446695754305],[115.55755611730547,-32.66168394672737],[115.67545420763189,-32.47517455243989],[115.68872149371077,-32.350715587565034],[115.62956231770428,-32.2739284455849],[115.71182997728289,-32.18133835337897],[115.67730701784643,-31.786233886662743],[115.27674918400433,-31.016426857253148],[115.14135183815326,-30.848413739195735],[115.01343574649248,-30.521655159010777],[114.89876601375603,-30.032010998060123],[114.9377632700436,-29.508410063760717],[114.80346374286945,-29.13207048642807],[114.56669741851663,-28.861703716717486],[114.54677624773082,-28.66857726707856],[114.47058117162092,-28.516298538523277],[114.12571708913373,-28.12727020818814],[114.05282000398054,-27.865322212932103],[114.09744442512932,-27.689019821718205],[113.97079534410902,-27.33580648390388],[113.61814807793873,-26.8],[123.0,-26.8],[123.0,-33.90744579524156],[122.63243369474694,-33.937429268748026]]]}},{"type":"Feature","properties":{"distributor":"Horizon Power","state":"WA","outageUrl":"https://www.horizonpower.com.au/faults-outages/","color":"#16a085"},"geometry":{"type":"Polygon","coordinates":[[[113.14826039377719,-25.149479018760818],[113.06098371737814,-25.320616096575808],[113.01989508574026,-25.281471589567914],[113.03403350676267,-25.059956610846218],[113.1067405738962,-24.74717952432824],[113.15597611560126,-24.71095795088111],[113.19590431897439,-24.757238395189383],[113.14826039377719,-25.149479018760818]]]}},{"type":"Feature","properties":{"distributor":"Horizon Power","state":"WA","outageUrl":"https://www.horizonpower.com.au/faults-outages/","color":"#16a085"},"geometry":{"type":"Polygon","coordinates":[[[113.04810019744784,-25.478793254558358],[113.25136556907856,-26.071506968435568],[113.28139334818641,-25.958929174603902],[113.39222333514704,-25.97747383122315],[113.4303238472361,-26.1187338903381],[113.48522201212677,-26.127130024751303],[113.50570741385549,-26.229622163397597],[113.59081185196494,-26.28402938312009],[113.60098584217609,-26.401925128912346],[113.66567258488583,-26.417694465637705],[113.70301274701514,-26.592934951194316],[113.78509977385315,-26.562132973068085],[113.83878337627577,-26.360463754596413],[113.65508799198845,-26.256061585055857],[113.53840458287797,-26.11477768788775],[113.51430322236823,-25.95671237648448],[113.37667446360327,-25.736423455535586],[113.47508999738635,-25.487121501388582],[113.53278077276686,-25.46764465550211],[113.57441166134075,-25.595824991269456],[113.7697737875104,-25.782052663661474],[113.77719557904591,-26.14275419994396],[113.83035918770142,-26.038673082898104],[113.8139611638917,-25.92194347959107],[113.90272901180295,-25.909683003337847],[114.05425648230833,-26.357726597910023],[114.09944265985045,-26.389057347142344],[114.1869269801936,-26.300150252313205],[114.14281685379922,-25.975607659334916],[114.21934105077908,-25.93742176767391],[114.21606791454748,-25.869870912232837],[114.11862846082484,-25.81510567349131],[113.76838194244397,-25.202000113090723],[113.63869642632228,-25.10592353780657],[113.569246393827,-24.762859371385684],[113.34724477814366,-24.41604982579896],[113.41836542732433,-23.893988478659782],[113.56669387983565,-23.599976544170303],[113.72376546537238,-23.44002804183149],[113.7035480544925,-23.16068210988854],[113.760857142741,-23.06229772825933],[113.75771021856262,-22.90878877383212],[113.72293542416567,-22.819078670772843],[113.61777196412058,-22.746752004198836],[113.60783917793209,-22.550680653251842],[113.69271881315488,-22.45390356643735],[113.98438090589134,-21.823733724634952],[114.16689952117935,-21.757816177421777],[114.21582583545644,-21.787516851961122],[114.12234614520419,-22.176664907282234],[114.14329801768903,-22.27712238167341],[114.21345945195569,-22.306702986418713],[114.17878510836337,-22.46690509668483],[114.2698881574535,-22.4016049876393],[114.32389130523032,-22.41884806563985],[114.47461397167429,-22.08616267538542],[114.45589200326965,-21.987470467220124],[114.53316214422634,-21.97500181842764],[114.61709989453917,-21.807529261591498],[114.91287743364133,-21.65240677370552],[115.09291801588408,-21.622074285744763],[115.45155859572886,-21.46517826891723],[115.5734190544819,-21.308766243690943],[115.786467545821,-21.192728473016576],[115.87831634031235,-21.048442097966333],[116.11415815429872,-20.93687943444767],[116.170519089473,-20.809919574952733],[116.43671580086654,-20.77112095791067],[116.66921593015351,-20.625717066201627],[116.77472049214605,-20.492113914803678],[116.88535296804842,-20.51690332261732],[116.86246662907722,-20.66059591397158],[117.15098867545007,-20.551821188824878],[117.31688375062119,-20.677316594805355],[117.66565611381615,-20.628725572069097],[117.81128926586365,-20.57863271868457],[117.91120422260671,-20.4566113262529],[118.1542304857797,-20.307803560407955],[118.35055812876448,-20.318384734968483],[118.78086008799191,-20.23989498356579],[118.94261384121394,-20.019206184121483],[119.0803269034786,-19.92418969415565],[119.468745838729,-19.95618083327896],[119.58743099133608,-20.014004284018167],[119.7213948878787,-19.920726006653876],[120.22870779159503,-19.86200760088724],[120.93485577743755,-19.59403979548767],[121.16351059765293,-19.438040817285035],[121.37965282060647,-19.196036153925306],[121.59495736214963,-18.804910265362782],[121.5756805663078,-18.689694766504456],[121.70771163891055,-18.632098038472858],[121.69171943567311,-18.56362725847767],[121.78094218345892,-18.430383795837315],[121.89458166645213,-18.418763898514836],[122.30042345423455,-18.099403159055804],[122.30042345423455,-18.026517156851153],[122.12677348673097,-17.993219954794345],[122.16019194499177,-17.720815904308814],[122.09882338047464,-17.572884685170457],[122.12929348450798,-17.249616691124082],[122.24319456391483,-17.059857706420644],[122.48327811678271,-16.877309272268633],[122.55856277469685,-16.741065463010447],[122.71329026482196,-16.734759896378357],[122.72332009954803,-16.578055742928267],[122.84730747269012,-16.48423536807541],[122.89128570047845,-16.379453253685863],[123.03074861262299,-16.338682063613028],[123.10322665107319,-16.4523450576586],[123.0325064809422,-16.507493360936834],[123.02803191830837,-16.570456437600978],[123.07729064252746,-16.645080201163125],[123.17219859611534,-16.662448564068207],[123.19102865161439,-16.894798998728255],[123.29737348727993,-16.990423162376448],[123.52680802157808,-17.437765148397244],[123.59405373744116,-17.206516079873953],[123.53576852666244,-17.101502950381267],[123.55567201156597,-16.962329224111464],[123.61333845699693,-16.9439123009649],[123.7793208866644,-17.062683040993143],[123.75194314090177,-16.992103612539182],[123.7994657885833,-16.93471414760589],[123.67792866970062,-16.77687207696086],[123.47554901627156,-16.684809851560196],[123.49030570665676,-16.60712889575189],[123.38238660285379,-16.5048881946033],[123.47966619141273,-16.369910913671237],[123.5859899314091,-16.370653175508124],[123.59664919286465,-16.335717333101297],[123.4975029807949,-16.27833720187035],[123.53263499780326,-16.1518037247983],[123.7376429258447,-16.09253052656113],[123.86744741157196,-16.20899183840262],[123.91375967832286,-16.173287497596547],[124.1425215239647,-16.229864147949915],[124.24559895579421,-16.353456922877285],[124.31533730593075,-16.36295348862678],[124.35363450531693,-16.32106102111518],[124.33688946681931,-16.20021731553502],[124.44815903150669,-15.956559186449418],[124.3608762829849,-15.885905065618488],[124.33175880290892,-15.516882283888462],[124.47404776957981,-15.407403541640408],[124.30644120880636,-15.324915637089896],[124.29915932390803,-15.265708036420603],[124.4229778348513,-15.200608353414324],[124.48147384782634,-15.271541740890553],[124.59074448523208,-15.20385858564269],[124.62297404597317,-15.310347970046875],[124.65270751530734,-15.207073308061236],[124.82364581530437,-15.254943206702869],[124.80433602012847,-15.113798895733652],[124.96889145328517,-15.06582605446732],[124.83296532472696,-15.003199745555575],[124.83477590002406,-14.939130677961526],[124.92514386667874,-14.891646252845744],[124.96919290834646,-14.936386755637804],[125.09072596852826,-14.928406583841435],[125.11667262725179,-14.993676083032865],[125.14782013301419,-14.96902063481051],[125.19513692014168,-14.890185071523657],[125.09333474983404,-14.751505806816965],[125.12369354902468,-14.690096509686517],[125.04365126323272,-14.607140775666732],[125.1406149653573,-14.398174092912248],[125.24092751578927,-14.443854146458177],[125.25071223402051,-14.53254323616971],[125.3484022519525,-14.45425930976353],[125.43563847180981,-14.528854299183543],[125.47809951761519,-14.448037572327493],[125.5616692436265,-14.452599415590457],[125.54062346693273,-14.242089035436507],[125.58872126148522,-14.20108800586654],[125.76034563264572,-14.23551607334636],[125.77805733057333,-14.419965076043816],[125.86507805144706,-14.415303035097557],[125.8900472923958,-14.488175997367954],[125.9846387639211,-14.492263113021988],[125.93890508446047,-14.366423571050793],[126.01661979606219,-14.319362521979823],[126.02354742242105,-14.21666934914908],[126.09778319782149,-14.156623729352951],[125.94966020299701,-14.086546393173576],[125.9380332047207,-13.979198886088477],[125.99980962770586,-13.880368598102226],[126.105093385865,-13.843788115139839],[126.25038094661761,-13.923220996661916],[126.23190258884082,-14.041939958996684],[126.25647225677119,-14.076266745537414],[126.24196890178182,-14.141873943483033],[126.25152451257844,-14.148845954647237],[126.29467940037866,-14.031515851048958],[126.40551395063392,-13.933967456033098],[126.58534354236453,-13.900391983830346],[126.61113827932574,-13.955698081413612],[126.54919451808789,-14.033738441210389],[126.5933612216793,-14.103974956380151],[126.61898356779699,-14.033737131974847],[126.67192590702305,-14.025469216053567],[126.67888841754372,-13.950502218956544],[126.78208209745803,-13.920322100262464],[126.71507086125457,-13.761361430314587],[126.96817284211365,-13.681668857302169],[127.10481283393831,-13.802081363764337],[127.1149287482769,-13.886425548970111],[127.16655754153247,-13.83624191008759],[127.4443516987295,-13.90563946527567],[127.48853770131106,-14.026746855911448],[127.69987184881187,-14.148486952329746],[127.96624391262172,-14.522837922771554],[128.25533297004466,-14.671485604857466],[128.23317297182118,-14.848107020137695],[128.15617862448005,-14.88853012641905],[128.1704859100681,-15.015395452920144],[128.28478954567717,-14.870527338240937],[128.3766410896505,-14.842938656001515],[128.3681810079314,-14.76195471298193],[128.52413565080295,-14.70861143081592],[129.03790915109877,-14.843528716135085],[129.00487170340435,-14.83485305895495],[128.9693256434836,-14.847988092112772],[129.0,-14.867775288325218],[128.99597739273517,-25.967883619110307],[128.99412752226303,-25.95543351096537],[128.99108991089912,-31.6906611481786],[128.95776173280692,-31.704832576518427],[129.0032416216734,-31.73347733763605],[128.23255202605378,-32.06165144443034],[127.29585384279585,-32.317577143917326],[126.67403680407818,-32.36206802895073],[126.1878244537531,-32.278559102354954],[126.023407804963,-32.31557609430629],[125.55758827294116,-32.58928175015006],[125.02056861323575,-32.777582631143616],[124.8496677484715,-32.90941810097984],[124.33496439816034,-33.007493889453265],[124.1335544832339,-33.18249610609364],[123.9846237947262,-33.59662205334114],[123.79522346198507,-33.74082182547204],[123.75619364789185,-33.83970150290944],[123.5388420502905,-33.98135551399859],[123.39192216734223,-33.941421781138125],[123.28434625122199,-34.02866224268949],[123.1509328803526,-34.053852307649244],[123.0135908635272,-33.90633714820108],[123.0,-33.90744579524156],[123.0,-26.8],[113.61814807793873,-26.8],[113.55547012491655,-26.704768144123694],[113.27681108858911,-26.4423822652697],[113.11639421701071,-26.168950081536575],[113.13501771132402,-26.11357516961371],[112.90906340511654,-25.783924479463025],[112.87614185895703,-25.51657672307507],[112.96575908435227,-25.43711603848635],[113.04810019744784,-25.478793254558358]],[[123.87264030934783,-16.24094750490888],[123.85020115806846,-16.27117774754564],[123.90608725944458,-16.294931760075784],[123.87264030934783,-16.24094750490888]],[[124.56013796628676,-15.968255481810166],[124.47812505901565,-16.042682659249945],[124.52836798943831,-16.111417329765345],[124.56013796628676,-15.968255481810166]],[[124.98620416056623,-15.357219498543596],[125.03639986457243,-15.395193134483726],[125.07270352646132,-15.338731755951326],[124.98620416056623,-15.357219498543596]],[[125.30566165151949,-15.095457154251234],[125.32711792369547,-15.028588201471132],[125.21506076598226,-14.999216548953655],[125.30566165151949,-15.095457154251234]]]}},{"type":"Feature","properties":{"distributor":"Horizon Power","state":"WA","outageUrl":"https://www.horizonpower.com.au/faults-outages/","color":"#16a085"},"geometry":{"type":"Polygon","coordinates":[[[115.45521289511066,-20.622794447835226],[115.51424827821809,-20.750084766104933],[115.43459053827709,-20.878638576618652],[115.28961722051442,-20.901211676961957],[115.25171685028018,-20.852912358505595],[115.45521289511066,-20.622794447835226]]]}}]}