
{
  "type": "FeatureCollection",
  "features": [
    {
      "type": "Feature",
      "properties": { "distributor": "Power and Water Corporation", "state": "NT", "outageUrl": "https://www.powerwater.com.au/customers/outages", "color": "#8e44ad" },
      "geometry": { "type": "Polygon", "coordinates": [[[129,-11],[138,-11],[138,-26],[129,-26],[129,-11]]] }
    },
    {
      "type": "Feature",
      "properties": { "distributor": "SA Power Networks", "state": "SA", "outageUrl": "https://www.sapowernetworks.com.au/outages/", "color": "#e67e22" },
      "geometry": { "type": "Polygon", "coordinates": [[[129,-26],[141,-26],[141,-38.5],[135,-38.5],[129,-33],[129,-26]]] }
    },
    {
      "type": "Feature",
      "properties": { "distributor": "Western Power", "state": "WA", "outageUrl": "https://www.westernpower.com.au/faults-outages/power-outages/", "color": "#2980b9" },
      "geometry": { "type": "Polygon", "coordinates": [[[113.3,-27],[122,-27],[122,-35.5],[114.9,-35.5],[113.3,-27]]] }
    },
    {
      "type": "Feature",
      "properties": { "distributor": "Horizon Power", "state": "WA", "outageUrl": "https://www.horizonpower.com.au/faults-outages/", "color": "#16a085" },
      "geometry": { "type": "Polygon", "coordinates": [[[112.5,-13.5],[129,-13.5],[129,-26],[122,-27],[113.3,-27],[112.5,-13.5]]] }
    },
    {
      "type": "Feature",
      "properties": { "distributor": "Ergon Energy", "state": "QLD", "outageUrl": "https://www.ergon.com.au/network/outages-and-disruptions/power-outages/outage-finder-map", "color": "#27ae60" },
      "geometry": { "type": "Polygon", "coordinates": [[[138,-10.5],[153.6,-10.5],[153.6,-25.8],[152.0,-25.8],[152.0,-28.3],[153.6,-28.3],[153.6,-29],[138,-29],[138,-10.5]]] }
    },
    {
      "type": "Feature",
      "properties": { "distributor": "Energex", "state": "QLD", "outageUrl": "https://www.energex.com.au/home/power-outages/outage-finder/outage-finder-map", "color": "#f1c40f" },
      "geometry": { "type": "Polygon", "coordinates": [[[152.0,-25.8],[153.6,-25.8],[153.6,-28.3],[152.0,-28.3],[152.0,-25.8]]] }
    },
    {
      "type": "Feature",
      "properties": { "distributor": "Essential Energy", "state": "NSW", "outageUrl": "https://www.essentialenergy.com.au/outages-and-faults/power-outages", "color": "#c0392b" },
      "geometry": { "type": "Polygon", "coordinates": [[[141,-29],[153.6,-29],[153.6,-32.5],[152.2,-32.5],[152.2,-34.0],[151.05,-34.0],[151.05,-33.4],[149.8,-33.4],[149.8,-35.0],[150.3,-35.0],[150.3,-34.05],[151.2,-35.0],[150.0,-37.0],[141,-37.0],[141,-29]]] }
    },
    {
      "type": "Feature",
      "properties": { "distributor": "Ausgrid", "state": "NSW", "outageUrl": "https://www.ausgrid.com.au/Outages/Current-Outages", "color": "#d35400" },
      "geometry": { "type": "Polygon", "coordinates": [[[151.0,-32.5],[152.2,-32.5],[152.2,-34.0],[151.05,-34.0],[151.05,-33.4],[151.0,-33.4],[151.0,-32.5]]] }
    },
    {
      "type": "Feature",
      "properties": { "distributor": "Endeavour Energy", "state": "NSW", "outageUrl": "https://www.endeavourenergy.com.au/outages/current-power-outages", "color": "#9b59b6" },
      "geometry": { "type": "Polygon", "coordinates": [[[149.8,-33.4],[151.05,-33.4],[151.05,-34.05],[151.2,-35.0],[150.3,-34.05],[150.3,-35.0],[149.8,-35.0],[149.8,-33.4]]] }
    },
    {
      "type": "Feature",
      "properties": { "distributor": "Evoenergy", "state": "ACT", "outageUrl": "https://www.evoenergy.com.au/residents/emergencies-faults-outages/outages", "color": "#2c3e50" },
      "geometry": { "type": "Polygon", "coordinates": [[[148.75,-35.15],[149.4,-35.15],[149.4,-35.6],[148.75,-35.6],[148.75,-35.15]]] }
    },
    {
      "type": "Feature",
      "properties": { "distributor": "AusNet Services", "state": "VIC", "outageUrl": "https://www.outagetracker.com.au/", "color": "#1abc9c" },
      "geometry": { "type": "Polygon", "coordinates": [[[145.4,-36.0],[150.0,-36.0],[150.0,-39.2],[145.4,-39.2],[145.4,-38.4],[145.05,-37.75],[145.05,-37.6],[145.4,-37.6],[145.4,-36.0]]] }
    },
    {
      "type": "Feature",
      "properties": { "distributor": "Powercor Australia", "state": "VIC", "outageUrl": "https://www.powercor.com.au/power-outages-and-faults/live-outage-map/", "color": "#3498db" },
      "geometry": { "type": "Polygon", "coordinates": [[[141,-36.0],[145.4,-36.0],[145.4,-37.6],[144.85,-37.6],[144.85,-37.75],[145.0,-37.75],[145.0,-38.4],[141,-38.4],[141,-36.0]]] }
    },
    {
      "type": "Feature",
      "properties": { "distributor": "Jemena Electricity Networks", "state": "VIC", "outageUrl": "https://poweroutages.jemena.com.au/", "color": "#e74c3c" },
      "geometry": { "type": "Polygon", "coordinates": [[[144.6,-37.6],[144.85,-37.6],[144.85,-37.75],[144.6,-37.75],[144.6,-37.6]]] }
    },
    {
      "type": "Feature",
      "properties": { "distributor": "CitiPower", "state": "VIC", "outageUrl": "https://www.citipower.com.au/power-outages-and-faults/live-outage-map/", "color": "#f39c12" },
      "geometry": { "type": "Polygon", "coordinates": [[[144.85,-37.75],[145.05,-37.75],[145.05,-37.87],[144.85,-37.87],[144.85,-37.75]]] }
    },
    {
      "type": "Feature",
      "properties": { "distributor": "United Energy", "state": "VIC", "outageUrl": "https://www.unitedenergy.com.au/outage-map/", "color": "#34495e" },
      "geometry": { "type": "Polygon", "coordinates": [[[144.85,-37.87],[145.05,-37.87],[145.05,-37.75],[145.4,-37.75],[145.4,-38.4],[144.85,-38.4],[144.85,-37.87]]] }
    },
    {
      "type": "Feature",
      "properties": { "distributor": "TasNetworks", "state": "TAS", "outageUrl": "https://www.tasnetworks.com.au/outages", "color": "#7f8c8d" },
      "geometry": { "type": "Polygon", "coordinates": [[[144,-39.5],[148.7,-39.5],[148.7,-43.7],[144,-43.7],[144,-39.5]]] }
    }
  ]
}