{"type":"FeatureCollection","features":[{"type":"Feature","properties":{"distributor":"Energex","state":"QLD","outageUrl":"https://www.energex.com.au/home/power-outages/outage-finder/outage-finder-map","color":"#f1c40f"},"geometry":{"type":"Polygon","coordinates":[[[153.15830764067263,-26.629247936820324],[153.25315677312042,-27.083267808819073],[153.11199395414033,-27.152037391747605],[153.1634792566427,-27.195195810302486],[153.1239101804927,-27.290554582825305],[153.20641580115966,-27.33962756110343],[153.36590859414045,-27.64182160258198],[153.39075806707262,-27.387429247009532],[153.32649382334606,-27.235308861654147],[153.32342250601067,-27.069365712472337],[153.36768204064754,-27.03693934467708],[153.4,-27.47],[153.54538140992,-27.603750897126403],[153.46359557823294,-27.911189758023855],[153.4930477350635,-28.052272086472055],[153.56004509367878,-28.113972943792724],[153.5,-28.15],[153.35,-28.32],[153.05,-28.3],[152.75,-28.28],[152.55,-28.25],[152.6,-28.15],[152.4,-28.1],[152.45,-28.0],[152.25,-27.95],[152.3,-27.85],[152.1,-27.75],[152.0,-27.55],[152.35,-27.2],[152.5,-26.95],[152.6,-26.6],[152.95,-26.35],[153.15,-26.35],[153.17802456630326,-26.413055274182337],[153.15830764067263,-26.629247936820324]]]}},{"type":"Feature","properties":{"distributor":"Ergon Energy","state":"QLD","outageUrl":"https://www.ergon.com.au/network/outages-and-disruptions/power-outages/outage-finder-map","color":"#27ae60"},"geometry":{"type":"Polygon","coordinates":[[[138.045,-16.572328219028215],[138.0440819436212,-16.53339110633691],[138.0191189895603,-16.504164675284773],[137.9657473167951,-16.5158364858555],[138.0238806357559,-16.503123354495667],[138.30962733700883,-16.70141495844728],[138.66638815444,-16.736474668082945],[139.03289639523754,-16.856613382122443],[139.19628055194485,-17.010828645540624],[139.1993036205735,-17.157785765395243],[139.27030675545592,-17.285449693929177],[139.45821549596468,-17.334503505622322],[139.66124628766985,-17.49145217490939],[139.94241892103838,-17.580200747617432],[140.01758838828786,-17.658048724535018],[140.49273718714545,-17.59324373050301],[140.80894993925654,-17.410213169524404],[140.9067408025514,-16.998131501180467],[141.2405218335687,-16.50809943061632],[141.24592137702763,-16.388669381141597],[141.38407522375607,-16.060936958135333],[141.33381795585532,-15.928868475628576],[141.39696751093072,-15.636063529128274],[141.61267564895945,-15.0899738833524],[141.47811327551574,-14.489229399609677],[141.55112511378346,-14.12091329158588],[141.42402706838098,-13.861672667435093],[141.4847857535281,-13.555139507548466],[141.64267825554745,-13.256834512830643],[141.5411938206773,-12.964017635546954],[141.60008956402444,-12.860542435095324],[141.7038328661876,-12.809466779729291],[141.78819981109805,-12.623530120456456],[141.7233678482902,-12.581832779287573],[141.58079303287957,-12.603863530065016],[141.55180066656095,-12.512092268929255],[141.79245103110205,-11.984548470255682],[141.9032377958412,-11.910389627080233],[142.08662091787014,-11.329803966791697],[142.1124733352258,-10.929941098111911],[142.30979846492482,-10.853119158062336],[142.41081935331002,-10.689869457088367],[142.56021700263713,-10.646291364198426],[142.66073452823,-10.740812877136886],[142.60892978620635,-10.823772485808801],[142.68832478519934,-10.947907151653153],[142.77944126615787,-10.948482690416173],[142.85411225150403,-11.156234455805613],[142.84726635048648,-11.265561377511995],[142.91755998982168,-11.377231697927618],[142.86866578485382,-11.487097054196347],[142.9046244144045,-11.81215471260946],[143.00081470917888,-11.884844072357353],[143.11304156145505,-11.858306546011278],[143.29304107276087,-11.952476165366331],[143.12953899851496,-12.167013979458487],[143.12433945725917,-12.297490661912448],[143.28400200644398,-12.354613189406933],[143.33251517953536,-12.505302752264457],[143.4741286746484,-12.591917036579385],[143.4234909841872,-12.81679202258218],[143.54462021889108,-12.787683266388719],[143.58515397305794,-12.818483622689653],[143.54761830315928,-13.070106373945626],[143.64143328832606,-13.524456128473267],[143.57915981012877,-13.74714085425074],[143.72879076444607,-13.999430762842152],[143.8231362591815,-14.375479432810721],[143.94358302195425,-14.457653829583395],[144.11098900439532,-14.357092021440367],[144.1789175467975,-14.211963142572454],[144.30492963304883,-14.261015196732854],[144.4992461017517,-14.11864521693838],[144.67399352552172,-14.321433463387777],[144.66225807261466,-14.4561997929066],[144.7040417717136,-14.517300738119072],[144.92292834546066,-14.575568545158818],[145.04812107641436,-14.763655361989862],[145.24241350627463,-14.79100318260107],[145.30554424950955,-14.900297036284226],[145.38697412619968,-14.924630163716511],[145.28410879677156,-15.167580288806507],[145.3512030440958,-15.18071500436877],[145.3942050001052,-15.25701031888722],[145.29266529284024,-15.440519490183556],[145.41174958977746,-15.739828153774702],[145.40280746755494,-15.891993686104831],[145.50531778107793,-16.052055542765306],[145.51282374209762,-16.267951165928352],[145.4518166828833,-16.43293963189409],[145.80839594360853,-16.84913197132341],[145.99743035842852,-16.86003487299725],[145.9321304604732,-17.055504153339168],[146.1179621553965,-17.383598827497398],[146.1155390800057,-17.502683424819562],[146.19367239609554,-17.62913438492715],[146.0597737293774,-18.21981495936318],[146.1795275744238,-18.220782214788077],[146.22848848101347,-18.152242202888704],[146.3448901045086,-18.219729163623988],[146.3289807234335,-18.299773790981448],[146.39903166628582,-18.40830749931264],[146.33739631661703,-18.886894114072977],[146.66574372907,-19.137040747325766],[146.8933596981134,-19.064565906442816],[146.91177299087522,-19.11589039950465],[146.85321311681182,-19.203471834214245],[146.9110092578311,-19.251528635844355],[146.99441925985693,-19.14241879728883],[147.04709972783635,-19.138195488519795],[147.16378269802092,-19.366495728081386],[147.39051241163696,-19.367841884242818],[147.35862659573482,-19.290146486955518],[147.42275321175848,-19.263500686514465],[147.59993638637252,-19.51708710392451],[147.63502698586214,-19.714326126950155],[147.7028210383429,-19.784668110491406],[147.72193205530488,-19.657175869605826],[147.84001953517273,-19.671975174337028],[147.95131906097555,-19.84881145388372],[148.08177710322897,-19.833615845656023],[148.30758972202815,-19.92956641356777],[148.32845722498982,-20.07732001717315],[148.39325290557488,-20.131705810391146],[148.4184148555507,-20.025633277773956],[148.57043721758572,-20.009011989075656],[148.71177380490667,-20.216653982332556],[148.81218454861013,-20.208476288632806],[148.978300596832,-20.54746112586964],[148.85385095385368,-20.570546736727646],[148.79491718185577,-20.501152636903523],[148.71505850933048,-20.574154645203855],[148.88722460273203,-20.800200621931808],[149.07891993310562,-20.859286184935275],[149.08879996830714,-20.94127353240478],[149.18553147032253,-20.967701549438257],[149.27312246343985,-21.075362302390754],[149.24614667162314,-21.213057642262005],[149.3313592468459,-21.261020391428147],[149.37331511184834,-21.45985409838491],[149.53166934968934,-21.5221856313805],[149.48225064548433,-21.78913922068333],[149.59455651799558,-22.164259448780903],[149.73657204187907,-22.320400754743364],[149.73593462994205,-22.38126967436257],[149.82473782104663,-22.334532679552492],[149.92729859359224,-22.439433174090833],[149.8227012391933,-22.14223688697309],[149.91764888344375,-21.997132881101727],[149.97116966435135,-22.12840542920124],[150.08851054811964,-22.11183398725501],[150.2278526156164,-22.34484032124994],[150.5385497963613,-22.519717304870124],[150.50544533141309,-22.39463491648946],[150.4145133119977,-22.32178586253339],[150.44608376729758,-22.18614378164397],[150.4997917948558,-22.17578607823625],[150.70808221004006,-22.32469317588357],[150.8013410468562,-22.452118145915847],[150.873093142389,-22.705658025970074],[150.81003493317223,-23.1431699319463],[150.8836750834525,-23.23987533714407],[150.8404594986012,-23.31535364102248],[150.92594927010103,-23.476106644805117],[150.90871559358732,-23.52605248617237],[150.95182087342306,-23.52431948931817],[150.9414112198953,-23.464587148673758],[151.019734415389,-23.400914166603116],[151.17611974395132,-23.477114740996225],[151.271047183414,-23.457336754876398],[151.274803532632,-23.595361440969928],[151.3416711427203,-23.702408857401586],[151.30514810702223,-23.80181917747237],[151.46523955053144,-23.96420249837122],[151.58183267606228,-23.998143838430117],[151.62851706418778,-23.939172691871057],[151.81178463240178,-23.991672427541552],[151.8465295493456,-24.099047065534354],[151.93621551403746,-24.122146827348402],[152.15581097803812,-24.560254760716372],[152.50637914385004,-24.77913861917087],[152.54848842224632,-24.97842045104819],[152.67520555903369,-25.12809374865077],[152.65931189002092,-25.178452746378714],[152.93897678134456,-25.250600498133966],[152.98505528870882,-25.39827735270499],[153.0231306813068,-25.27240181112999],[152.97406205264087,-25.191107286128727],[153.1840282520339,-25.00482210125389],[153.19339971891978,-24.93009629811049],[153.0963185566737,-24.796265804914977],[153.2585052501068,-24.653956824417726],[153.3197911479318,-24.67120188470348],[153.32886729456607,-24.863235510303426],[153.41806644194654,-25.02208062333593],[153.1294446816388,-25.671113230806277],[153.1077942445393,-25.810237723648648],[153.14932423530317,-25.88930123514848],[153.24977549130773,-25.930550807074187],[153.1267957935906,-26.3216357200681],[153.180620833523,-26.384587655362438],[153.17802456630326,-26.413055274182337],[153.15,-26.35],[152.95,-26.35],[152.6,-26.6],[152.5,-26.95],[152.35,-27.2],[152.0,-27.55],[152.1,-27.75],[152.3,-27.85],[152.25,-27.95],[152.45,-28.0],[152.4,-28.1],[152.6,-28.15],[152.55,-28.25],[152.75,-28.28],[153.05,-28.3],[153.35,-28.32],[153.5,-28.15],[153.56004509367878,-28.113972943792724],[153.5979474433021,-28.14887890896151],[153.63428112220288,-28.25918579096623],[153.60745455443035,-28.49786229707674],[153.6747362778952,-28.66646111589229],[153.6270294993828,-28.90505177029364],[153.47555229035513,-29.045],[153.47493474934748,-29.00075755725546],[141.0,-29.000146861476523],[141.0,-29.0],[141.0,-26.0],[138.00047682345172,-26.0],[138.00019438531524,-25.973345027188834],[138.00198001980021,-16.542434460060917],[138.045,-16.572328219028215]],[[141.045,-29.000002732685758],[141.045,-29.0],[141.0,-29.0],[141.045,-29.000002732685758]]]}},{"type":"Feature","properties":{"distributor":"Ergon Energy","state":"QLD","outageUrl":"https://www.ergon.com.au/network/outages-and-disruptions/power-outages/outage-finder-map","color":"#27ae60"},"geometry":{"type":"Polygon","coordinates":[[[153.44813322170793,-26.977997478070694],[153.50606291878458,-27.00371568680257],[153.47027542980106,-27.354080326028004],[153.5955354920753,-27.415218072196808],[153.54538140992,-27.603750897126403],[153.4,-27.47],[153.36768204064754,-27.03693934467708],[153.44813322170793,-26.977997478070694]]]}},{"type":"Feature","properties":{"distributor":"Ergon Energy","state":"QLD","outageUrl":"https://www.ergon.com.au/network/outages-and-disruptions/power-outages/outage-finder-map","color":"#27ae60"},"geometry":{"type":"Polygon","coordinates":[[[139.4867899731975,-16.940192130000973],[139.61990477402546,-17.07598146580732],[139.42821357910267,-17.188369722312967],[139.35760147096738,-17.10566946018352],[139.4867899731975,-16.940192130000973]]]}},{"type":"Feature","properties":{"distributor":"Ergon Energy","state":"QLD","outageUrl":"https://www.ergon.com.au/network/outages-and-disruptions/power-outages/outage-finder-map","color":"#27ae60"},"geometry":{"type":"Polygon","coordinates":[[[139.10188003562956,-16.773038080838575],[139.13155366112917,-16.580103660804124],[139.26776975096962,-16.429233244422175],[139.58036248446257,-16.350574199603475],[139.7698546883786,-16.416154988662846],[139.76960247703764,-16.469801545025504],[139.6377258262194,-16.58891388457728],[139.54768553282415,-16.586467318978844],[139.47298743389038,-16.699713910827167],[139.3360433147657,-16.75993197798527],[139.10188003562956,-16.773038080838575]]]}},{"type":"Feature","properties":{"distributor":"Ergon Energy","state":"QLD","outageUrl":"https://www.ergon.com.au/network/outages-and-disruptions/power-outages/outage-finder-map","color":"#27ae60"},"geometry":{"type":"Polygon","coordinates":[[[142.16801597372083,-10.554081421115429],[142.29551821410217,-10.528372386024529],[142.3696380999665,-10.602786605808342],[142.3265554453126,-10.692852973133938],[142.15311848253216,-10.800679176363719],[142.0682213149275,-10.684888146653623],[142.16801597372083,-10.554081421115429]]]}},{"type":"Feature","properties":{"distributor":"Ergon Energy","state":"QLD","outageUrl":"https://www.ergon.com.au/network/outages-and-disruptions/power-outages/outage-finder-map","color":"#27ae60"},"geometry":{"type":"Polygon","coordinates":[[[142.22996885816224,-10.062529348010973],[142.2308232109638,-10.121741217561025],[142.31156041316558,-10.09825520984614],[142.38450192967792,-10.18317592758521],[142.27110711939517,-10.290230582366515],[142.13511349679192,-10.22940766232324],[142.0502240355231,-10.119613297400003],[142.13287595547493,-10.005793984984027],[142.22996885816224,-10.062529348010973]]]}},{"type":"Feature","properties":{"distributor":"Ergon Energy","state":"QLD","outageUrl":"https://www.ergon.com.au/network/outages-and-disruptions/power-outages/outage-finder-map","color":"#27ae60"},"geometry":{"type":"Polygon","coordinates":[[[142.82302562101833,-9.366016843716533],[142.7520086458199,-9.465597583311279],[142.6195828134109,-9.46722915125127],[142.56928812941976,-9.390557164055187],[142.59326132137946,-9.342738612338502],[142.82302562101833,-9.366016843716533]]]}},{"type":"Feature","properties":{"distributor":"Ergon Energy","state":"QLD","outageUrl":"https://www.ergon.com.au/network/outages-and-disruptions/power-outages/outage-finder-map","color":"#27ae60"},"geometry":{"type":"Polygon","coordinates":[[[142.17179730316303,-9.328843804383194],[142.11862325254626,-9.250776407240533],[142.21560545522118,-9.1952032902208],[142.32649128658275,-9.287283866338495],[142.17179730316303,-9.328843804383194]]]}},{"type":"Feature","properties":{"distributor":"Ergon Energy","state":"QLD","outageUrl":"https://www.ergon.com.au/network/outages-and-disruptions/power-outages/outage-finder-map","color":"#27ae60"},"geometry":{"type":"Polygon","coordinates":[[[149.1107120548098,-20.3226141787411],[148.96099334442275,-20.362907409817495],[148.88395449580614,-20.296480686457954],[148.92199308837598,-20.186231298825085],[148.8566308847284,-20.175058349821843],[148.8710781486253,-20.04717001528837],[148.9878077292834,-20.00292454077907],[149.1107120548098,-20.3226141787411]]]}},{"type":"Feature","properties":{"distributor":"Ergon Energy","state":"QLD","outageUrl":"https://www.ergon.com.au/network/outages-and-disruptions/power-outages/outage-finder-map","color":"#27ae60"},"geometry":{"type":"Polygon","coordinates":[[[146.6698933800823,-18.811322246524163],[146.55704367681403,-18.800281619065586],[146.56482015199873,-18.639819776106673],[146.72698545883,-18.73591326227671],[146.6698933800823,-18.811322246524163]]]}}]}