{"type":"FeatureCollection","features":[{"type":"Feature","properties":{"distributor":"Ausgrid","state":"NSW","outageUrl":"https://www.ausgrid.com.au/Outages/Current-Outages","color":"#d35400"},"geometry":{"type":"Polygon","coordinates":[[[152.25023280211173,-32.661903876325866],[152.26186481495307,-32.70915346747128],[152.20904538056678,-32.805008405356666],[151.9972429318745,-32.8419093463908],[151.8602433671129,-32.90157832436813],[151.7811173611736,-32.98955135415048],[151.7717131935939,-33.04203637821858],[151.70898504974042,-33.09000683728571],[151.60781134224277,-33.31661246067804],[151.48728602022857,-33.45352550518006],[151.46617112899247,-33.54800297167587],[151.37265679790752,-33.58351993359255],[151.32305633291998,-33.97119107032211],[151.2675217431089,-34.05],[150.95,-34.05],[150.95,-32.4],[152.3,-32.4],[152.3,-32.61605149008551],[152.25023280211173,-32.661903876325866]]]}},{"type":"Feature","properties":{"distributor":"Endeavour Energy","state":"NSW","outageUrl":"https://www.endeavourenergy.com.au/outages/current-power-outages","color":"#9b59b6"},"geometry":{"type":"Polygon","coordinates":[[[150.95,-34.05],[151.15,-34.05],[151.15,-34.17885144617888],[151.00620519284743,-34.29068986082597],[150.95435820145767,-34.41371310771907],[150.96231161482697,-34.49882910644422],[150.9213259588268,-34.55637943414419],[150.95721229506432,-34.61986202003685],[150.9108798182208,-34.65717775805705],[150.87062140708275,-34.80637086507951],[150.80394204295564,-34.86527131813116],[150.8288479644923,-34.959110491454496],[150.89360066136362,-35.002505762831156],[150.88427180226265,-35.096575151605236],[150.87985959066674,-35.1],[149.7,-35.1],[149.7,-33.3],[150.95,-33.3],[150.95,-34.05]],[[150.73380366201067,-35.07279531880277],[150.72807479342802,-35.068908930175105],[150.7335584392913,-35.076410813295105],[150.73380366201067,-35.07279531880277]]]}},{"type":"Feature","properties":{"distributor":"Essential Energy","state":"NSW","outageUrl":"https://www.essentialenergy.com.au/outages-and-faults/power-outages","color":"#c0392b"},"geometry":{"type":"Polygon","coordinates":[[[149.89687996123334,-37.54820281798063],[149.95777854504135,-37.52696332101929],[146.9,-36.1],[141.0,-34.0],[141.0,-29.000146861476523],[153.47493474934748,-29.00075755725546],[153.47555229035513,-29.045],[153.50236712543818,-29.02022605067899],[153.48855447660168,-29.166059000248787],[153.39508559606503,-29.294481553631186],[153.40789220939618,-29.476469589437478],[153.36781191313528,-29.587141447725724],[153.33880895859764,-29.836466631405614],[153.2466812831887,-30.033418938001088],[153.24748930650995,-30.143351805515824],[153.09295854374182,-30.487676687120736],[153.03467007750743,-30.73695213180635],[153.04537473836993,-30.812266574546886],[153.13377243778456,-30.896234605725734],[153.0882990286869,-31.029321794296788],[153.10453656293106,-31.088821590774078],[153.02205891783737,-31.18798859595478],[153.02140748160534,-31.33150462552233],[152.96804613646603,-31.403433851916166],[152.98453429898476,-31.477763971972898],[152.89078211512825,-31.58561192164149],[152.8911918667362,-31.65769307332829],[152.7904636519419,-31.81018798531995],[152.78664683494733,-31.86522256014982],[152.6441811469265,-31.97692674769257],[152.59633611306887,-32.04923809441181],[152.56534823918696,-32.15328087773766],[152.61253933731,-32.21509488356267],[152.57986878075627,-32.280746899633215],[152.59827622526842,-32.31839445760657],[152.57946771448633,-32.46160544643711],[152.31970310464854,-32.597898280686294],[152.3,-32.61605149008551],[152.3,-32.4],[150.95,-32.4],[150.95,-33.3],[149.7,-33.3],[149.7,-35.1],[150.87985959066674,-35.1],[150.80901808071872,-35.15498862109259],[150.7803828197886,-35.219634747025175],[150.58460557267483,-35.24968192148323],[150.53550490504907,-35.320052590005545],[150.52990149727694,-35.39519463375366],[150.45558868537185,-35.483741242464276],[150.4473077180497,-35.570427278420276],[150.32463684500587,-35.754486227077415],[150.25967053012727,-35.76910890670709],[150.27891045438716,-35.85254492646299],[150.19350148501488,-35.92142882165813],[150.16606612198956,-36.17982627741763],[150.1851328963911,-36.33092830296339],[150.11393567094672,-36.423627448058895],[150.1087387730691,-36.58041462325011],[149.95540075591737,-36.90827917049712],[149.98792027061552,-36.94812718883957],[149.97710032473213,-37.09172446921262],[150.019501485876,-37.110689504348926],[150.0995084034666,-37.27395971341086],[150.0667976900059,-37.31143069588499],[149.9998436528321,-37.30657755131687],[150.03108063699534,-37.50211799656406],[149.95123547377094,-37.57148509342729],[149.89687996123334,-37.54820281798063]],[[149.4,-35.15],[148.75,-35.15],[148.75,-35.6],[149.4,-35.6],[149.4,-35.15]]]}},{"type":"Feature","properties":{"distributor":"Essential Energy","state":"NSW","outageUrl":"https://www.essentialenergy.com.au/outages-and-faults/power-outages","color":"#c0392b"},"geometry":{"type":"Polygon","coordinates":[[[151.2675217431089,-34.05],[151.20913193413273,-34.13286076056669],[151.15,-34.17885144617888],[151.15,-34.05],[151.2675217431089,-34.05]]]}}]}