{"type":"FeatureCollection","features":[{"type":"Feature","properties":{"distributor":"Power and Water Corporation","state":"NT","outageUrl":"https://www.powerwater.com.au/customers/outages","color":"#8e44ad"},"geometry":{"type":"Polygon","coordinates":[[[128.99558713134576,-27.044783106080757],[129.0,-14.867775288325218],[128.9693256434836,-14.847988092112772],[129.02560140425106,-14.827192988933684],[129.19645846049232,-14.935762808584704],[129.2142820646855,-14.794341082094014],[129.50567908263957,-14.898541277608318],[129.45760816630542,-14.803433653759628],[129.4828336777966,-14.750062632718492],[129.6050625778902,-14.82368090635332],[129.65789471933383,-14.787673779356654],[129.5483786672482,-14.59412652403227],[129.32150721002165,-14.433991177603836],[129.3308429639939,-14.312171411421605],[129.44493118252112,-14.133815717736784],[129.44825540092202,-14.02059508970505],[129.55282475155641,-14.031510631626992],[129.5860814024211,-13.957748069276182],[129.68577996119097,-13.963420917684136],[129.6723377539699,-13.852539851224247],[129.76425442113361,-13.750003228652275],[129.74381691916895,-13.661583852796344],[129.85675598136993,-13.408062291573232],[129.91570233720634,-13.39946233346153],[129.97062226045983,-13.480937819029833],[130.10543075515608,-13.423327179356932],[130.21347517384703,-13.302595140670796],[130.0794987122444,-13.181428906679875],[130.08601986530326,-12.926440944326691],[130.27990354283483,-12.86682799066907],[130.32202576147426,-12.642144818115359],[130.5345339357291,-12.560872022950194],[130.5498407899287,-12.365831787638005],[130.7799026581747,-12.38945547115214],[130.88870574603064,-12.289708702703079],[130.98371230303405,-12.30691995914279],[130.9513100209747,-12.190898663886392],[130.99293686791452,-12.115605572755294],[131.22479707611507,-12.175259609109977],[131.2863476546695,-11.999926539075968],[131.335073341176,-12.023372411003441],[131.38438870776218,-12.192006285060021],[131.45933584031562,-12.244736601281838],[131.77313040596698,-12.22594720155461],[131.8977081232596,-12.171320941573347],[132.05424500534838,-12.253550277452856],[132.24100365246665,-12.112063411788201],[132.3085831055295,-12.179215948092933],[132.38301746799004,-12.171542149106749],[132.29444646905236,-12.103481708174684],[132.37143433610052,-12.028478402142206],[132.44435745491458,-12.10237835751642],[132.58269510386518,-12.051010242192183],[132.6050627093892,-11.86290283013049],[132.46727904967625,-11.667382670264935],[132.52154455309005,-11.603402256395862],[132.46445190267258,-11.514138934434078],[132.37119780411442,-11.481976929433817],[132.09418679810048,-11.565945606768931],[131.92273433539546,-11.43653582318354],[131.9122671573106,-11.381697101196988],[131.7280016410901,-11.33415827913325],[131.78806527749364,-11.170500282739356],[131.885291177225,-11.1278852841861],[131.9395718376782,-11.17558325255681],[131.96974304334086,-11.087020233018313],[132.0920815007401,-11.170114797728603],[132.14853043161494,-11.08108625448078],[132.23967633479637,-11.145266160761928],[132.35365001693714,-11.07844813477241],[132.40400346695787,-11.189656598414611],[132.4463074942794,-11.168381428551747],[132.4322258230545,-11.002907954484517],[132.61227151992915,-10.925656292063076],[132.6284446382301,-11.124176548395859],[132.67932573527463,-11.174681239231733],[132.63253222724046,-11.374186017404465],[132.69698877870192,-11.463785618540586],[132.840733621451,-11.302693392402771],[132.92630537940178,-11.288980158197734],[133.11316102807834,-11.483514585333966],[133.19913750054693,-11.666702968324252],[133.2561678777612,-11.682135538140741],[133.36356978708727,-11.57739417575363],[133.35923908687894,-11.459864931222942],[133.4911343971475,-11.412117231450837],[133.5571890283498,-11.510709213308871],[133.49370802770858,-11.557756655205024],[133.5276676573233,-11.612261171097186],[133.45327517314598,-11.655876593077826],[133.45248331818527,-11.735452051051388],[133.54015055489128,-11.704559578390118],[133.57573530735309,-11.767485693026737],[133.6440389542396,-11.774605127114569],[133.7857956779104,-11.672345293057884],[133.92731963835152,-11.678009189977555],[133.98181756719302,-11.766722615195597],[133.89424104206836,-11.83227247230686],[133.9440836407775,-11.86149547148095],[134.07054543625404,-11.802113296339527],[134.1702583351767,-11.847765144760675],[134.24164989617594,-11.951799062237901],[134.29876363968347,-11.924713891807862],[134.4444446941846,-12.013105344782813],[134.58008468495848,-12.01876056243521],[134.78252436129796,-11.90484985360981],[134.96611840830755,-12.059645152797394],[134.96045502724724,-12.124412934885006],[135.12917824962142,-12.206749166550503],[135.3482317351598,-12.046956184424918],[135.45232865700075,-12.064505964001249],[135.57906770754502,-11.916829955183687],[135.72130741506066,-11.897589781300839],[135.83554153366694,-11.818628468415111],[135.9715456307918,-11.617076304144879],[136.0701733807878,-11.608495904128809],[136.09607305190724,-11.667510026148864],[135.9726990945217,-11.75189503092447],[135.94237817416013,-11.871943105395358],[135.8770723369879,-11.929509134786379],[135.94372289731712,-11.931466347499615],[135.95826946082425,-11.987253428679967],[135.70933176646102,-12.177034232736489],[135.74054237813885,-12.23492548542014],[135.85933273198677,-12.113005547839624],[136.0890052035075,-12.035649560010736],[136.11029661219433,-11.976571457159716],[136.31878035747005,-11.941682054083989],[136.36193753718018,-11.982650571711769],[136.5858763417283,-11.851937011239825],[136.60979177583832,-11.90040230943846],[136.5624177201528,-11.959239448516886],[136.66415518170982,-12.162430500149608],[136.76424619041074,-12.119157464808849],[136.89570924467594,-12.183015220461897],[137.02418822390845,-12.363137893021959],[136.74488569560413,-12.641122354011165],[136.7234591637873,-12.744488408850629],[136.65514905652847,-12.758493246581901],[136.64550124907657,-12.861389337747088],[136.55170011945623,-12.844887921154555],[136.7038110971861,-13.002067379474394],[136.6032015731204,-13.0342500721237],[136.50448395621012,-13.274059124738123],[136.3194097374752,-13.353788629391673],[136.2760286520485,-13.303928461958696],[136.3405647518245,-13.196510552211135],[136.16609646160026,-13.307615595871814],[136.09936054360546,-13.246424629976069],[136.09914514385252,-13.316508168422368],[136.2315817295793,-13.44299715379443],[136.17355279567283,-13.594654117604092],[136.10355325687874,-13.579372546400492],[136.04921863899264,-13.356875320353705],[136.00070018272172,-13.304735978153438],[135.9430678253255,-13.331232539444287],[136.01216837076967,-13.443854165693335],[135.90123215035774,-13.481501056010464],[135.89230152450017,-13.583080944882685],[135.96942500786102,-13.669883018181064],[136.04042528722616,-13.610151300224047],[136.1459493003828,-13.687439447529394],[136.2353604569691,-13.622807430586443],[136.32855539133783,-13.685387000449426],[136.32269066637198,-13.80907521409815],[136.2002309541754,-13.897492040709052],[136.0706917109692,-13.819766474466807],[135.96850031684025,-13.980947846787192],[135.94631243253426,-14.222374171210365],[135.79133832732762,-14.300842282933555],[135.55530068006559,-14.680997762010435],[135.4265178585856,-14.744265734812743],[135.50631119288988,-14.917202570749353],[136.26533692478918,-15.383814552896167],[136.32269696929754,-15.541785930372235],[136.47065970953454,-15.630578536048327],[136.48727390523797,-15.5112486659191],[136.6018808185547,-15.47078058110639],[136.6458588221518,-15.50783295286313],[136.6324252497322,-15.63620185292019],[136.80136846368467,-15.624589876489921],[136.80866059801863,-15.511483969416169],[136.909234604219,-15.462793432531061],[136.93951974174183,-15.600748615581727],[136.82248337363274,-15.75522330623008],[136.71869686118166,-15.786921532799635],[136.76850310556284,-15.855839282847565],[136.9097384966253,-15.885160117398504],[136.9861598875935,-15.81886909217846],[136.89169886220242,-15.716350256382876],[136.95719194622168,-15.567523758727836],[137.0149467730319,-15.553642321746702],[137.1279257890304,-15.642912536177088],[137.14627392337238,-15.810727655592528],[137.07629527355755,-15.868648298807074],[137.38163880722345,-16.0813921557578],[137.77235330372966,-16.215253343502166],[138.0440819436212,-16.53339110633691],[138.045,-16.572328219028215],[138.00198001980021,-16.542434460060917],[138.0,-27.0],[129.0,-27.0],[128.99558713134576,-27.044783106080757]],[[129.00074933077684,-26.0],[129.0,-26.0],[129.0,-27.0],[129.00074933077684,-26.0]],[[136.15031909688923,-12.107722039131549],[136.09518024221765,-12.045519198519553],[135.9912327747011,-12.205628716464085],[136.10495951990254,-12.219599837278624],[136.05197393569955,-12.408999997353277],[136.22394528329528,-12.39765687216765],[136.2987975066183,-12.251558015836105],[136.14572212664692,-12.203289201869502],[136.15031909688923,-12.107722039131549]],[[129.59275730310196,-15.00859196591352],[129.58389002794473,-15.007802804664598],[129.6144283749843,-15.051642452339074],[129.59275730310196,-15.00859196591352]]]}},{"type":"Feature","properties":{"distributor":"Power and Water Corporation","state":"NT","outageUrl":"https://www.powerwater.com.au/customers/outages","color":"#8e44ad"},"geometry":{"type":"Polygon","coordinates":[[[135.66984668225277,-14.949426977431585],[135.67186658247007,-14.828087234155587],[135.77522627589974,-14.80256196157565],[135.79821884572556,-14.928841180318427],[135.66984668225277,-14.949426977431585]]]}},{"type":"Feature","properties":{"distributor":"Power and Water Corporation","state":"NT","outageUrl":"https://www.powerwater.com.au/customers/outages","color":"#8e44ad"},"geometry":{"type":"Polygon","coordinates":[[[130.3220445982641,-11.196709355723241],[130.41541436681706,-11.110713483309235],[130.53216674105963,-11.243163969622593],[130.60562047482279,-11.2426885273896],[130.61846384425425,-11.30408571399288],[130.68857994669375,-11.298558655293432],[130.71882185022287,-11.369383937203057],[130.91198383698335,-11.265387516545637],[131.0080225016816,-11.29938524663955],[131.28205384515684,-11.1454625109627],[131.32557056701373,-11.216487993367737],[131.4483457367359,-11.213016886000714],[131.50635823635824,-11.345393206656587],[131.5690114223867,-11.366392226694598],[131.58047139869907,-11.471868392455466],[131.51000064985166,-11.544551901260728],[131.50282513691766,-11.635424883968241],[131.4055789964303,-11.629327961913653],[131.31963698173263,-11.758363792851634],[130.97198135350723,-11.977767074931364],[130.66886581764564,-11.808036216312233],[130.50123409480528,-11.884430097154967],[130.31635650172083,-11.817621718787457],[130.07029163914456,-11.870278579093343],[129.97435952756527,-11.763189724106276],[130.04342150356763,-11.63540859852192],[130.14420927082244,-11.629060348388593],[130.10496705437484,-11.47169299131636],[130.24060709545412,-11.303411149918654],[130.3389407206279,-11.271709464731341],[130.3220445982641,-11.196709355723241]]]}},{"type":"Feature","properties":{"distributor":"Power and Water Corporation","state":"NT","outageUrl":"https://www.powerwater.com.au/customers/outages","color":"#8e44ad"},"geometry":{"type":"Polygon","coordinates":[[[136.52130216795123,-13.70360142922151],[136.54520630033716,-13.65536218939313],[136.6185740525747,-13.665641405267934],[136.71818661713007,-13.603235412128589],[136.75995163728362,-13.635559894005114],[136.73611972155965,-13.719444818206858],[136.77255292250092,-13.798750556727734],[136.82782931848715,-13.707079769786512],[136.94281678774922,-13.735258156179615],[136.9659171915707,-13.825176670309855],[136.8309908743427,-13.971345596026607],[136.8468503737015,-14.056176196824966],[136.7566524797442,-14.097051715922825],[136.75213175693025,-14.123203567561157],[137.01405006564056,-14.119116307598544],[136.92658106954516,-14.337221516032235],[136.28712728185317,-14.25435182444547],[136.38934911999203,-14.10351391325878],[136.36971548903247,-13.800319938980238],[136.56593700494278,-13.768020413079972],[136.52130216795123,-13.70360142922151]]]}},{"type":"Feature","properties":{"distributor":"Power and Water Corporation","state":"NT","outageUrl":"https://www.powerwater.com.au/customers/outages","color":"#8e44ad"},"geometry":{"type":"Polygon","coordinates":[[[136.72606375642172,-10.994229373533582],[136.78071705126425,-10.977494153441224],[136.80662711182026,-11.032170375902968],[136.57148019440928,-11.471564665801937],[136.39793166218251,-11.630103718798727],[136.14979172324647,-11.723797256408368],[136.13655357014878,-11.66756835334059],[136.23433570649948,-11.5417507183962],[136.31475207105237,-11.548324119985269],[136.43478795180516,-11.440838147987048],[136.72606375642172,-10.994229373533582]]]}}]}