{"type":"FeatureCollection","features":[{"type":"Feature","properties":{"distributor":"Evoenergy","state":"ACT","outageUrl":"https://www.evoenergy.com.au/residents/emergencies-faults-outages/outages","color":"#2c3e50"},"geometry":{"type":"Polygon","coordinates":[[[149.4,-35.565000000000005],[149.38974873734153,-35.58974873734154],[149.365,-35.6],[148.785,-35.6],[148.76555504184432,-35.59410143643059],[148.7541327557478,-35.58149888578892],[148.75,-35.565000000000005],[148.75,-35.184999999999995],[148.75589856356942,-35.16555504184431],[148.7685011142111,-35.1541327557478],[148.785,-35.15],[149.365,-35.15],[149.38444495815568,-35.15589856356941],[149.3958672442522,-35.16850111421108],[149.4,-35.184999999999995],[149.4,-35.565000000000005]]]}}]}