{"type":"FeatureCollection","features":[{"type":"Feature","properties":{"distributor":"CitiPower","state":"VIC","outageUrl":"https://www.citipower.com.au/power-outages-and-faults/live-outage-map/","color":"#f39c12"},"geometry":{"type":"Polygon","coordinates":[[[144.95,-37.75],[145.02,-37.755],[145.06,-37.79],[145.055,-37.815],[145.02,-37.84],[144.98,-37.86],[144.93,-37.865],[144.905,-37.85],[144.9,-37.82],[144.91,-37.79],[144.94,-37.755],[144.95,-37.75]]]}},{"type":"Feature","properties":{"distributor":"Jemena Electricity Networks","state":"VIC","outageUrl":"https://poweroutages.jemena.com.au/","color":"#e74c3c"},"geometry":{"type":"Polygon","coordinates":[[[144.9153,-37.9438],[144.8552,-37.9394],[144.8503,-37.95],[144.8,-37.95],[144.78,-37.87],[144.8,-37.84],[144.825,-37.83],[144.8,-37.83],[144.75,-37.79],[144.7,-37.75],[144.65,-37.7],[144.58,-37.62],[144.55,-37.55],[144.55,-37.44],[144.6,-37.4],[144.68,-37.4],[144.8,-37.42],[144.9,-37.4],[144.97,-37.4],[144.99,-37.44],[144.93,-37.47],[144.98,-37.5],[144.95,-37.58],[145.0,-37.63],[145.02,-37.68],[145.06,-37.7],[145.02,-37.735],[144.9929,-37.7531],[144.95,-37.75],[144.94,-37.755],[144.91,-37.79],[144.9,-37.82],[144.905,-37.85],[144.93,-37.865],[144.9694,-37.8611],[144.9278,-37.936],[144.9153,-37.9438]]]}},{"type":"Feature","properties":{"distributor":"United Energy","state":"VIC","outageUrl":"https://www.unitedenergy.com.au/outage-map/","color":"#34495e"},"geometry":{"type":"Polygon","coordinates":[[[145.3521,-38.6166],[145.3268,-38.608],[145.3005,-38.5801],[145.3003,-38.58],[145.2576,-38.565],[145.2421,-38.5665],[145.2108,-38.58],[145.2084,-38.5811],[145.2049,-38.58],[145.1696,-38.569],[145.1357,-38.5724],[145.1047,-38.5755],[145.0884,-38.5693],[145.0756,-38.5574],[145.0701,-38.5374],[145.0673,-38.5271],[145.0573,-38.5306],[145.0487,-38.5336],[144.9754,-38.5418],[144.9533,-38.5546],[144.9311,-38.5543],[144.8606,-38.5197],[144.837,-38.5],[144.7079,-38.3919],[144.7071,-38.3916],[144.68,-38.36],[144.66,-38.31],[144.7,-38.27],[144.7582,-38.2293],[144.7573,-38.2333],[144.7435,-38.2509],[144.7123,-38.2615],[144.6983,-38.2773],[144.7091,-38.2834],[144.7412,-38.2881],[144.809,-38.3335],[144.8834,-38.3279],[144.9483,-38.306],[144.9565,-38.2788],[144.9853,-38.2543],[145.0001,-38.2225],[145.0794,-38.1364],[145.0844,-38.1209],[145.0824,-38.101],[145.0711,-38.0776],[145.0524,-38.0581],[145.0241,-38.0498],[144.9923,-38.0261],[144.9634,-37.9797],[144.9551,-37.9586],[144.9426,-37.9268],[144.9278,-37.936],[144.9526,-37.8913],[144.9694,-37.8611],[144.98,-37.86],[145.02,-37.84],[145.055,-37.815],[145.06,-37.79],[145.02,-37.755],[145.15,-37.75],[145.28,-37.8],[145.35,-37.88],[145.42,-38.02],[145.4,-38.12],[145.4,-38.2294],[145.28,-38.18],[145.45,-38.25],[145.52,-38.42],[145.38,-38.58],[145.4,-38.5571],[145.4,-38.5867],[145.3959,-38.5859],[145.3777,-38.6094],[145.3521,-38.6166]],[[145.0918,-38.4836],[145.0884,-38.4845],[145.0887,-38.4862],[145.0918,-38.4836]],[[145.3621,-38.4722],[145.3772,-38.4818],[145.3847,-38.4622],[145.3621,-38.4722]],[[145.428,-38.2728],[145.4265,-38.2725],[145.3687,-38.2778],[145.428,-38.2728]]]}},{"type":"Feature","properties":{"distributor":"AusNet Services","state":"VIC","outageUrl":"https://www.outagetracker.com.au/","color":"#1abc9c"},"geometry":{"type":"Polygon","coordinates":[[[145.5,-35.95],[146.3,-35.95],[146.92,-36.08],[147.5,-36.3],[148.0,-36.6],[148.5,-37.0],[149.0,-37.3],[149.9578,-37.527],[149.8629,-37.5507],[149.9516,-37.5715],[150.0006,-37.5288],[150.0023,-37.5204],[149.9963,-37.5503],[149.9767,-37.5678],[149.9036,-37.5928],[149.809,-37.5997],[149.7994,-37.6149],[149.7614,-37.6479],[149.7471,-37.6772],[149.6937,-37.7358],[149.679,-37.7434],[149.639,-37.7517],[149.6105,-37.776],[149.5469,-37.789],[149.5231,-37.8145],[149.4887,-37.8303],[149.3481,-37.8314],[149.3223,-37.8385],[149.2989,-37.8608],[149.2745,-37.8686],[149.2498,-37.8617],[149.2218,-37.8348],[149.1694,-37.8347],[149.1295,-37.8258],[149.0982,-37.8346],[148.9463,-37.8348],[148.907,-37.8414],[148.7965,-37.8431],[148.7269,-37.8684],[148.6027,-37.8568],[148.3104,-37.8684],[148.1393,-37.9012],[147.9316,-37.9606],[147.7779,-38.0261],[147.6131,-38.1183],[147.4221,-38.256],[147.2109,-38.4322],[147.1109,-38.5077],[147.0127,-38.6063],[146.9142,-38.6726],[146.8732,-38.7215],[146.8533,-38.7293],[146.8252,-38.7266],[146.8095,-38.7191],[146.7976,-38.7058],[146.6925,-38.7245],[146.7031,-38.7426],[146.7042,-38.7644],[146.6904,-38.794],[146.6786,-38.8061],[146.6521,-38.8154],[146.6035,-38.8147],[146.5859,-38.8324],[146.5669,-38.8405],[146.5365,-38.8429],[146.5143,-38.8366],[146.5143,-38.8646],[146.5284,-38.8946],[146.5279,-38.933],[146.5192,-38.9521],[146.4916,-38.9775],[146.4897,-38.9861],[146.5048,-39.0019],[146.5264,-39.0505],[146.5258,-39.0804],[146.5136,-39.0982],[146.4851,-39.1137],[146.4787,-39.1437],[146.4668,-39.1607],[146.4277,-39.1844],[146.3978,-39.1905],[146.3812,-39.189],[146.3302,-39.169],[146.2945,-39.138],[146.2813,-39.1146],[146.2767,-39.0891],[146.2793,-39.0732],[146.2569,-39.0588],[146.226,-39.0194],[146.2091,-38.9624],[146.1537,-38.905],[146.0831,-38.8666],[146.0501,-38.8718],[146.0465,-38.9129],[146.0368,-38.9275],[146.0224,-38.9373],[145.9405,-38.9543],[145.9095,-38.9492],[145.8941,-38.9412],[145.8809,-38.9242],[145.8558,-38.849],[145.8167,-38.7849],[145.7883,-38.7494],[145.7213,-38.6875],[145.6514,-38.7218],[145.5907,-38.7241],[145.5375,-38.693],[145.4851,-38.6145],[145.4339,-38.593],[145.4,-38.5867],[145.4,-38.5571],[145.52,-38.42],[145.45,-38.25],[145.4,-38.2294],[145.4,-38.12],[145.42,-38.02],[145.4,-37.98],[145.4,-35.974],[145.5,-35.95]],[[146.3006,-38.7936],[146.3148,-38.8447],[146.35,-38.8195],[146.3771,-38.8131],[146.3946,-38.7821],[146.3457,-38.7403],[146.2674,-38.746],[146.2498,-38.7533],[146.2645,-38.7748],[146.284,-38.7795],[146.3006,-38.7936]],[[149.7813,-37.5129],[149.7741,-37.5297],[149.7869,-37.5327],[149.7813,-37.5129]],[[149.7201,-37.5163],[149.7206,-37.517],[149.7682,-37.5283],[149.7201,-37.5163]]]}},{"type":"Feature","properties":{"distributor":"Powercor Australia","state":"VIC","outageUrl":"https://www.powercor.com.au/power-outages-and-faults/live-outage-map/","color":"#3498db"},"geometry":{"type":"Polygon","coordinates":[[[141.3266,-38.3843],[141.3308,-38.367],[141.351,-38.3322],[141.3454,-38.3252],[141.1887,-38.2109],[141.1145,-38.1682],[140.9757,-38.1133],[140.9881,-38.1182],[141.0123,-38.1187],[141.0419,-38.0917],[141.0,-38.0754],[141.0,-34.0],[141.91,-34.12],[142.16,-34.2],[142.6,-34.5],[143.0,-34.9],[143.55,-35.34],[144.2,-35.7],[144.75,-36.13],[145.4,-35.974],[145.4,-37.98],[145.35,-37.88],[145.28,-37.8],[145.15,-37.75],[145.02,-37.755],[144.9929,-37.7531],[145.02,-37.735],[145.06,-37.7],[145.02,-37.68],[145.0,-37.63],[144.95,-37.58],[144.98,-37.5],[144.93,-37.47],[144.99,-37.44],[144.97,-37.4],[144.9,-37.4],[144.8,-37.42],[144.68,-37.4],[144.6,-37.4],[144.55,-37.44],[144.55,-37.55],[144.58,-37.62],[144.65,-37.7],[144.7,-37.75],[144.75,-37.79],[144.8,-37.83],[144.825,-37.83],[144.8,-37.84],[144.78,-37.87],[144.8,-37.95],[144.8503,-37.95],[144.8431,-37.9657],[144.823,-37.984],[144.7652,-38.0032],[144.6928,-38.0581],[144.5807,-38.0886],[144.5729,-38.0963],[144.5722,-38.1176],[144.6376,-38.0826],[144.6642,-38.0801],[144.7272,-38.1068],[144.7594,-38.1336],[144.7687,-38.1482],[144.7718,-38.1654],[144.7582,-38.2293],[144.7,-38.27],[144.66,-38.31],[144.68,-38.36],[144.7071,-38.3916],[144.6504,-38.3702],[144.6365,-38.3542],[144.6315,-38.3353],[144.5393,-38.3351],[144.5048,-38.3481],[144.4712,-38.3459],[144.4441,-38.3368],[144.4206,-38.3432],[144.3346,-38.3945],[144.2824,-38.4344],[144.2384,-38.447],[144.2087,-38.4742],[144.1622,-38.4868],[144.1397,-38.5066],[144.0801,-38.5222],[144.0446,-38.5544],[144.0417,-38.5725],[144.0255,-38.5988],[144.0109,-38.6093],[143.967,-38.6242],[143.9384,-38.6755],[143.9073,-38.6946],[143.8722,-38.7272],[143.8563,-38.735],[143.7338,-38.7674],[143.7048,-38.8159],[143.6925,-38.8274],[143.6769,-38.8336],[143.6569,-38.8344],[143.6374,-38.8436],[143.5996,-38.881],[143.5378,-38.9036],[143.5154,-38.8991],[143.4426,-38.8535],[143.4264,-38.8354],[143.3953,-38.8258],[143.3611,-38.8069],[143.3309,-38.801],[143.2384,-38.8074],[143.2062,-38.7978],[143.158,-38.7621],[143.143,-38.7412],[143.0935,-38.7043],[143.0458,-38.6791],[142.9377,-38.6626],[142.8432,-38.6304],[142.7947,-38.62],[142.7353,-38.5747],[142.6317,-38.5116],[142.4912,-38.4434],[142.4733,-38.4505],[142.4518,-38.4488],[142.3857,-38.4123],[142.3082,-38.4142],[142.2857,-38.434],[142.2335,-38.4503],[142.1684,-38.444],[142.0692,-38.4046],[141.9356,-38.3279],[141.8961,-38.3276],[141.8559,-38.3155],[141.7615,-38.3078],[141.7332,-38.3115],[141.6743,-38.338],[141.6873,-38.3565],[141.6968,-38.392],[141.6963,-38.4093],[141.6894,-38.425],[141.677,-38.4371],[141.661,-38.4435],[141.6087,-38.4429],[141.5935,-38.4686],[141.5751,-38.4818],[141.5527,-38.4845],[141.5214,-38.4735],[141.4745,-38.4207],[141.4632,-38.4207],[141.4542,-38.4342],[141.4354,-38.4457],[141.4075,-38.451],[141.3762,-38.4427],[141.3457,-38.4227],[141.3313,-38.4059],[141.3266,-38.3843]]]}}]}