{"type":"FeatureCollection","features":[{"type":"Feature","properties":{"distributor":"SA Power Networks","state":"SA","outageUrl":"https://www.sapowernetworks.com.au/outages/","color":"#e67e22"},"geometry":{"type":"Polygon","coordinates":[[[137.75989960727088,-35.91773984336214],[137.66735721801962,-35.945471776107766],[137.63506746566352,-36.055568246010026],[137.4629244253596,-36.12742002451816],[137.23818545895568,-36.02779457536418],[137.14803190215451,-36.086658603794504],[136.71419741194856,-36.107314266160564],[136.48816537117884,-35.912044679819395],[136.58356041246762,-35.71412330542105],[137.3307775007253,-35.53813272787321],[137.62397623976238,-35.53783175525822],[137.66569879745992,-35.56597268709965],[137.67959552834418,-35.69676000762211],[137.7949661358577,-35.69788209342431],[137.8323754116318,-35.74889607515786],[137.97480132866363,-35.6856111360382],[138.15956941652306,-35.78380561945161],[138.1599156237119,-35.89074550500611],[138.0327472916084,-35.963512951918084],[137.75989960727088,-35.91773984336214]]]}},{"type":"Feature","properties":{"distributor":"SA Power Networks","state":"SA","outageUrl":"https://www.sapowernetworks.com.au/outages/","color":"#e67e22"},"geometry":{"type":"Polygon","coordinates":[[[134.43643478649247,-33.76450623246328],[134.5567251932194,-33.655438955942515],[134.59110397870305,-33.751099206438006],[134.48202711813465,-33.82758459134309],[134.43643478649247,-33.76450623246328]]]}},{"type":"Feature","properties":{"distributor":"SA Power Networks","state":"SA","outageUrl":"https://www.sapowernetworks.com.au/outages/","color":"#e67e22"},"geometry":{"type":"Polygon","coordinates":[[[138.00047682345172,-26.0],[141.0,-26.0],[141.0,-29.0],[141.0,-38.07539214434639],[141.0418976841685,-38.09168882570735],[141.01227052034324,-38.1186868822542],[140.6782613721149,-38.11151521102753],[140.37231709850678,-37.95560572659468],[140.2075530918087,-37.69759858676507],[140.06769930658146,-37.552773503224635],[139.95699577339596,-37.51897770862861],[139.70580016724853,-37.20851353790201],[139.7311092988656,-37.12267722840617],[139.62832026019956,-36.94488647405166],[139.78111643219415,-36.84722610676301],[139.80817106385152,-36.63336536341787],[139.42348670606444,-35.989542921838854],[138.873093286421,-35.58829781266085],[138.75693097663796,-35.58429154071587],[138.53904017655643,-35.689618267931266],[138.20364063090847,-35.71717737528339],[138.07123857186247,-35.648087487405945],[138.10701047657318,-35.50874869945966],[138.39811754502645,-35.31520180541552],[138.46778355164255,-35.03356183373188],[138.465157615073,-34.75741908389876],[138.25764277754647,-34.53091048509202],[138.08242087524965,-34.20877022163177],[138.07770131334587,-34.32910414191986],[137.97030126634334,-34.437783320371814],[137.955971793428,-34.633187952692765],[137.77391736132526,-35.16925888004706],[137.66863144838172,-35.225899201075244],[137.42669993313595,-35.1651006270973],[137.1831058307337,-35.28489980022542],[137.04982528414538,-35.27291205909766],[136.91978205551854,-35.3404935339031],[136.79997338373445,-35.27904406371425],[136.99568365189802,-34.862261873995735],[137.40751491254497,-34.889821148497305],[137.4663411762985,-34.616965556885326],[137.4442739208303,-34.51461035596268],[137.37076824624063,-34.4790359537063],[137.43655424941116,-34.34644493650126],[137.40882235247264,-34.14077558935032],[137.49718108710658,-34.067968107177045],[137.5674071176286,-33.84904600793379],[137.8899388695037,-33.55331459451333],[137.7676775998262,-33.24782964632627],[137.83093051908523,-33.15170955979341],[137.9950769123638,-33.10461646786779],[137.9181829462151,-33.02378850356996],[137.86618674479482,-32.759992914149535],[137.8357406016714,-32.740000077600094],[137.81787823484302,-33.004697297553406],[137.64698514245927,-33.0097521491607],[137.4909224983881,-33.16347284812122],[137.40872538344448,-33.43292830502415],[137.25483574286483,-33.68590855202054],[136.61328698541848,-33.95380333807833],[136.39460467269936,-34.114071693097024],[136.26469375518883,-34.33751360358649],[136.17696656817128,-34.385544572200715],[136.13265137922383,-34.56637113738689],[135.98275250268986,-34.56402925773265],[135.9855935502,-34.65102116118818],[135.9228861405471,-34.74029306764875],[136.04431035377723,-34.70967088938612],[136.04271132363576,-34.938888963802675],[136.10123321463772,-34.90531741674407],[136.23275120183936,-35.0014803821701],[136.15775030019648,-35.11089021709356],[136.05601561875375,-34.983373905013764],[135.95168356988526,-35.050204645345374],[135.77639389820592,-34.910210086291194],[135.7085995922485,-34.98923818448909],[135.60451943032754,-34.98924072854205],[135.4294300252165,-34.77011564443197],[135.28720193349562,-34.71705746754539],[135.27118331477507,-34.63711539773266],[135.0737496239244,-34.62640888943582],[135.18536589788292,-34.39253568660313],[135.32693994310995,-34.48032171931743],[135.28559862868542,-34.24534941560098],[135.18656730539058,-34.14935709248046],[135.21534989934173,-34.01309991931332],[134.80495015078128,-33.65757004161898],[134.81651204480332,-33.484382662217584],[134.77460466333167,-33.37908036436816],[134.46483531178478,-33.20269168289113],[134.3110082093889,-33.24426580128456],[134.20473253777013,-33.086423729775674],[134.11228328578173,-33.052648853145286],[134.13595961038402,-32.98499691937676],[134.03155419874176,-32.95761961219762],[134.0786216607863,-32.833717614002694],[134.02922678215555,-32.701519852051725],[134.2401328832975,-32.686436902971415],[134.23225435925744,-32.61117156994151],[134.12022863921678,-32.50338684466398],[133.83016987157578,-32.576797163808585],[133.82500366518926,-32.42316593969502],[133.87868872800578,-32.375863298388175],[133.8167056555434,-32.30045566528423],[133.7104287054782,-32.26681507407909],[133.63120634203722,-32.34664757985329],[133.52717719313904,-32.35470546099034],[133.49792305131353,-32.30096877369521],[133.5687900993953,-32.2164936790189],[133.27560121116977,-32.26400153783668],[133.13649805671795,-32.24042456334381],[132.7583704178687,-31.995097050371097],[132.52409954110263,-31.98594009385124],[132.4974284672298,-32.069354241001875],[132.22208259074077,-32.076630718468685],[131.7632990219717,-31.767660235492706],[131.17525526786636,-31.526114848705667],[130.83685216514755,-31.646094595001156],[130.1588411503979,-31.61923863015492],[129.00446110546926,-31.734245409478138],[128.95776173280692,-31.704832576518427],[128.99108991089912,-31.6906611481786],[128.99412752226303,-25.95543351096537],[128.99597739273517,-25.967883619110335],[128.99558713134576,-27.044783106080757],[129.0,-27.0],[138.0,-27.0],[138.00019438531524,-25.973345027188532],[138.0,-25.955],[138.00047682345172,-26.0]],[[139.1902390320598,-35.47211023912187],[139.3177936279363,-35.442016826607606],[139.1940295723254,-35.364179014755656],[139.01403551467575,-35.45008824299645],[139.07461101125034,-35.50391568845067],[139.1902390320598,-35.47211023912187]],[[139.27576739032804,-35.64348468431283],[139.3002412549991,-35.64310203988385],[139.3056484658593,-35.6146963446264],[139.27695648808404,-35.59663453916101],[139.27576739032804,-35.64348468431283]],[[133.5777999497748,-32.21439146401408],[133.6484620647246,-32.199094380942064],[133.63586025473404,-32.15180789845732],[133.5777999497748,-32.21439146401408]]]}}]}