{"type":"FeatureCollection","features":[{"type":"Feature","properties":{"distributor":"TasNetworks","state":"TAS","outageUrl":"https://www.tasnetworks.com.au/outages","color":"#7f8c8d"},"geometry":{"type":"Polygon","coordinates":[[[143.81461286240935,-39.70561144255365],[143.8356370915246,-39.66542375432344],[143.89980730475804,-39.638584880349796],[143.89178298734248,-39.5750546171273],[143.92847117249704,-39.53809787886225],[143.9965148370504,-39.527686662727774],[144.11434747050768,-39.595241590071154],[144.15530794767542,-39.668514945095],[144.1499556105513,-39.719623485715196],[144.17055899080165,-39.81037185239035],[144.15336962069478,-39.870860066595185],[144.17741173457418,-39.88896338541745],[144.18844541608095,-39.92165685208227],[144.17921429903643,-40.00568828239149],[144.14213189260298,-40.06326674887653],[144.10008721061536,-40.08680044080564],[144.06998596803572,-40.11647416885556],[144.03126923508634,-40.124617409900374],[143.94000143468543,-40.16886703256503],[143.89348330751275,-40.17089301997721],[143.87011368085896,-40.158099292798845],[143.8388675169337,-40.109251575143446],[143.82927933051428,-40.05837312906417],[143.84532244872273,-39.99503621107028],[143.81937365556578,-39.98044425697614],[143.79314808481803,-39.94104919025517],[143.79763754639163,-39.85392977775319],[143.82143866438665,-39.81606534532826],[143.82143866438665,-39.78915544115981],[143.80730689055756,-39.756836303998085],[143.81461286240935,-39.70561144255365]]]}},{"type":"Feature","properties":{"distributor":"TasNetworks","state":"TAS","outageUrl":"https://www.tasnetworks.com.au/outages","color":"#7f8c8d"},"geometry":{"type":"Polygon","coordinates":[[[146.23353683187955,-39.02936014856978],[146.22440671890342,-38.98751241847341],[146.25444411939154,-38.95697807634703],[146.26763934902948,-39.0],[146.43884636989029,-39.0],[146.4525291273048,-38.95716590581922],[146.50236969767232,-38.998118791950105],[146.52814492123125,-39.071498795066965],[146.51445247599582,-39.097497611399035],[146.48484465104795,-39.11568807690707],[146.46682636287616,-39.160730419077254],[146.42768744546146,-39.18440323985178],[146.3853161564178,-39.18994873370038],[146.30372137267895,-39.150001467212526],[146.28231226565904,-39.118628273289794],[146.278151964115,-39.07693755647409],[146.23353683187955,-39.02936014856978]]]}},{"type":"Feature","properties":{"distributor":"TasNetworks","state":"TAS","outageUrl":"https://www.tasnetworks.com.au/outages","color":"#7f8c8d"},"geometry":{"type":"Polygon","coordinates":[[[144.57493949501762,-40.938726512904665],[144.5865880893569,-40.8974920025916],[144.62952842311313,-40.86295952805919],[144.66138145222996,-40.850969409876065],[144.64613800843068,-40.675536321947064],[144.66160547053653,-40.63398253851061],[144.69591333802157,-40.60190175435872],[144.6857053111444,-40.574012296995896],[144.68544730447306,-40.52897477620876],[144.6640410202238,-40.494010579413946],[144.67633575686378,-40.455162568394705],[144.69880860890342,-40.434761480683946],[144.7268394199261,-40.43132868337828],[144.74071032901062,-40.38506187219049],[144.76263147791036,-40.36426034816473],[144.7927678785832,-40.36201590494488],[144.82060973478548,-40.38367641102535],[144.83057768836073,-40.382130258028624],[144.86650459267676,-40.342707731018194],[144.918907168174,-40.33514076667369],[144.9639634135764,-40.34709494321767],[145.0002377359339,-40.37689234096392],[145.0057154557443,-40.40212626817489],[144.99547214489834,-40.46592076451673],[144.97597318610858,-40.48838387554814],[144.9090643210574,-40.51357837029105],[144.86274684636908,-40.51133767363308],[144.83664791647917,-40.494126326816584],[144.82944190036838,-40.527750586205244],[144.81144766447662,-40.54865861923288],[144.80636628832215,-40.60517029025874],[144.76406660173615,-40.63265375065546],[144.79323909521915,-40.67117422601952],[144.82644504553454,-40.67543757829222],[144.8279824876878,-40.651756744191665],[144.84215529194393,-40.630783968040106],[144.91057387511282,-40.57524704200565],[144.94440604126683,-40.57152180513754],[144.976804643316,-40.60246390513282],[145.08219031696905,-40.65397656187831],[145.10939555944557,-40.700621528141276],[145.10681267202196,-40.72660339104847],[145.08662320891483,-40.74894237501344],[145.09912615607567,-40.76331366096681],[145.12732953941472,-40.74753890257106],[145.21615698636978,-40.751492026927586],[145.20387540212343,-40.71754251740588],[145.21590600797418,-40.68545491155352],[145.2426677752021,-40.67153368944275],[145.282191151099,-40.676041792884035],[145.33455480857808,-40.713749991715],[145.35139713180845,-40.75270098473056],[145.3371358720417,-40.78783141087313],[145.35670423459038,-40.79904949666318],[145.41345116924953,-40.80558369319223],[145.4507519868798,-40.821891115568405],[145.51106604986802,-40.80259221487733],[145.53692701496473,-40.80351763139224],[145.56051275511595,-40.82211410135167],[145.57178508302692,-40.855556876788675],[145.5909256345177,-40.86698313127562],[145.7221990341124,-40.88645333417074],[145.7504175082585,-40.900179119963674],[145.79151221540874,-40.95994170966322],[145.82870495922745,-40.9848632151349],[145.92759099265652,-40.998840741808635],[146.09482221401188,-41.07141053583267],[146.22360827612326,-41.11088589954453],[146.41697748112736,-41.12207852556081],[146.53863848522468,-41.08861815792158],[146.5809460388097,-41.10108914323664],[146.65223213690786,-41.0451794742572],[146.691434782221,-41.041410589633855],[146.7403024740975,-41.02071530994819],[146.79036315060787,-41.03172327073174],[146.81822458211235,-40.99917756564533],[146.9182547926805,-40.975709874783696],[147.0042327266198,-40.932843454889664],[147.16483599641862,-40.960365956853735],[147.2827822333354,-40.89583902972681],[147.31369950988415,-40.90492606066971],[147.36014887268178,-40.90034530100077],[147.43680863204258,-40.96125032102962],[147.4864031810786,-40.92276899298647],[147.57494763495583,-40.80639558337823],[147.67296176686688,-40.78113012037088],[147.72819998571077,-40.817522846730746],[147.76714017064987,-40.81307688425791],[147.81855932809867,-40.84481087522891],[147.8352684020012,-40.84490392354725],[147.88191632789034,-40.82142124896496],[147.92299887261544,-40.725499088145625],[147.97850674771007,-40.691823162404816],[148.0417033371334,-40.70361267591882],[148.1010422411798,-40.72764244769281],[148.16706688942998,-40.79154248603272],[148.2337237875201,-40.80408161059166],[148.35164718124162,-40.933378626985956],[148.37498092915808,-40.99477088587613],[148.37146157310346,-41.02007141610043],[148.34731987634854,-41.049615760002794],[148.347685701567,-41.08070918013959],[148.31762197407613,-41.14512280500965],[148.31732342368707,-41.192949757169565],[148.36322471191576,-41.247593098274166],[148.39052499796122,-41.2634321441298],[148.40045020748312,-41.29648829288508],[148.36973094856185,-41.34547258825626],[148.32619262121727,-41.45633169937882],[148.32869539797937,-41.526762224730255],[148.35139676408963,-41.56084164148609],[148.36101463725785,-41.60846930037477],[148.35483681331482,-41.64483107235671],[148.33264770683633,-41.68364027353713],[148.3490832013349,-41.76152668233],[148.31163364561831,-41.80569894774156],[148.32586912774113,-41.84671526758034],[148.37097083104146,-41.905980594820356],[148.34453679203628,-42.03195943836169],[148.4057864324403,-42.09729394613141],[148.4057864324403,-42.129514746927704],[148.3899227091811,-42.15227322042674],[148.40767762554952,-42.20804414414505],[148.3910994361387,-42.26865369355554],[148.34967825733477,-42.314486517374675],[148.31102100316625,-42.3213377171229],[148.2413682791005,-42.28888909137489],[148.21722177070248,-42.2622286288672],[148.22068860093665,-42.21817584116674],[148.24760188529507,-42.19200942901112],[148.22959912483185,-42.167084226648015],[148.232140598126,-42.13577960489059],[148.12603358482318,-42.13591200468232],[148.1151787147703,-42.21701575187343],[148.07891506707966,-42.250224008551136],[148.0569323026856,-42.29159716825256],[148.07337963236893,-42.31515862931165],[148.0766803168032,-42.34727229840831],[148.06892891783895,-42.37252188693722],[148.04886506651317,-42.39119733504759],[148.0509977322896,-42.52101239032269],[148.04026662955548,-42.544164638434395],[148.00454964192798,-42.5730683158386],[148.07030414576573,-42.53435647960082],[148.1492469355606,-42.547396417363366],[148.17290653942925,-42.56456420389572],[148.1877734916163,-42.60258157857879],[148.21434342878064,-42.624811349109464],[148.22062108781478,-42.650174974005424],[148.20580346186262,-42.681270817061055],[148.15543476674935,-42.71112972011693],[148.15032217284988,-42.73873641845867],[148.13127046720993,-42.75718647881387],[148.05819322307073,-42.77184244707032],[148.02618463290815,-42.794952475501866],[147.9928593463446,-42.79241684487329],[147.96977011110693,-42.77073676973111],[147.92547880478807,-42.792948060698535],[147.96699467822165,-42.82239770653682],[148.01169271102975,-42.837564165658534],[148.05018608100738,-42.8988547928938],[148.05328940710288,-42.98292535972632],[148.039807604322,-43.004140080780964],[148.00910931451162,-43.02051683444499],[148.00928307496943,-43.074840544662905],[148.0475103232821,-43.15203292945149],[148.0365634259168,-43.201493466318794],[148.04423862291532,-43.228469071332505],[148.03754480661007,-43.25407951170522],[148.01343678546309,-43.27311337439245],[147.9701483644275,-43.27307491056232],[147.90078210563198,-43.231943225035224],[147.88089842549982,-43.2458706738594],[147.8545019269223,-43.247779502122675],[147.81080541306284,-43.2856823199879],[147.7723708445905,-43.283325123644225],[147.6640141269662,-43.18922666773028],[147.65337183265788,-43.12277951188914],[147.61097865889053,-43.10101745447774],[147.57649979122598,-43.02674232426071],[147.52737667037164,-43.065763927536956],[147.43470276618396,-43.091202074639455],[147.48144621827845,-43.249282643183655],[147.4453913738022,-43.291674755292874],[147.39684200024828,-43.29081170934352],[147.37004648111827,-43.30165037250701],[147.40807630547306,-43.363925980734386],[147.40596995346021,-43.41929254999651],[147.37492920217173,-43.46759883128538],[147.3537015632064,-43.52398546789501],[147.32118610768399,-43.55079471816718],[147.2740880420375,-43.54889848495329],[147.21577216359586,-43.523814666845574],[147.18062311179938,-43.54535509431254],[147.13704031554263,-43.54376146701666],[147.06015208963333,-43.46792043804256],[147.0590373349094,-43.49321482273909],[147.04724274585638,-43.51145271430724],[147.02827954315669,-43.522041857953],[147.00000290072808,-43.52191000616399],[146.98159605634035,-43.56260872585515],[146.98563475827632,-43.603097551745044],[146.9716570480416,-43.631327581034014],[146.94600842584802,-43.65255333820538],[146.84726847268473,-43.68572248713846],[146.81222911915455,-43.68071027314906],[146.78828584652285,-43.65423162989383],[146.69559882856635,-43.67137519475551],[146.668656539258,-43.656445785740424],[146.64441754175533,-43.6225505285151],[146.54356298351357,-43.56813781152261],[146.48747025345324,-43.58259105006235],[146.3714491867215,-43.57359265899216],[146.3402664145516,-43.562283337487244],[146.28978849735114,-43.577548395383005],[146.24066029907138,-43.550205207100696],[146.22676166704215,-43.56827331034743],[146.19622541307336,-43.583733099122306],[146.17073738393964,-43.58077017771362],[146.1492221488394,-43.56167146015227],[146.1326526463115,-43.5821684662146],[146.10873571038823,-43.59166203732332],[146.07550998941963,-43.58678987948824],[146.02421513929306,-43.59789606689089],[145.9985531938095,-43.59078688050426],[145.97808087656048,-43.557367270236654],[145.98095937066083,-43.469941791123105],[145.899567822465,-43.40307290445766],[145.89148140571672,-43.37871269979564],[145.899634141851,-43.35125765556117],[145.83027000951822,-43.34452183198022],[145.8043435321766,-43.32832822111592],[145.7632818061357,-43.25781411007012],[145.75843901140956,-43.23372703115934],[145.72321123528627,-43.20668999038919],[145.6883114710952,-43.15250677737716],[145.63893246723543,-43.12731129243198],[145.6260468225158,-43.101322666175115],[145.62728981406403,-43.074652782284275],[145.59938632588654,-43.05307958735178],[145.56789674404448,-43.00760548336725],[145.50421623996132,-43.00291815692755],[145.4782400860051,-42.988677537749034],[145.4120231738133,-42.905961393733776],[145.36598884175214,-42.80811608657872],[145.34137268101526,-42.79630935652436],[145.32354745721628,-42.77044453906504],[145.31942006887115,-42.745111272942296],[145.32996894260117,-42.721460458313516],[145.31990268092562,-42.69261377085201],[145.29521176870742,-42.6820433809977],[145.276053486826,-42.651909051848016],[145.24538275683227,-42.643484025576626],[145.2273360929241,-42.62546370592884],[145.2184173720327,-42.591646156110954],[145.23197568839697,-42.563105208242575],[145.19086386146688,-42.47496644396018],[145.19506572163536,-42.43161601263809],[145.15814413790548,-42.31491169050219],[145.15705202052024,-42.25372302556514],[145.1427652311504,-42.19849237600687],[145.1537866172014,-42.16566684598978],[145.17610248661003,-42.15180768275243],[145.19962422689517,-42.15197460195957],[145.2197835331202,-42.115011752159205],[145.209685927941,-42.05817703189276],[145.17003544448846,-41.99523048563153],[145.1263341945354,-41.949842426472564],[145.03320232122212,-41.887485938731],[145.01450166589623,-41.848465276051606],[144.99347312143686,-41.83253357355105],[144.96035923033762,-41.77864469684509],[144.93201542403983,-41.753990090392655],[144.89003629543006,-41.737504267551984],[144.870977608698,-41.701759551613875],[144.86904914049146,-41.66103946263204],[144.82860750857216,-41.56911312365257],[144.7620184352173,-41.481378670982515],[144.71010332677122,-41.437041680969344],[144.7047967154638,-41.40255241580777],[144.7298099154024,-41.36313846778835],[144.63759515043392,-41.237608246139104],[144.6458469084691,-41.17390260097975],[144.62182606243363,-41.13160021579357],[144.62769887895894,-41.08900936112999],[144.56017280697688,-41.00446532221013],[144.56311368207267,-40.97861621883535],[144.58338939871803,-40.95665732126582],[144.57493949501762,-40.938726512904665]],[[145.3220742355374,-42.240762053122175],[145.3212108402906,-42.24201281229924],[145.32254490298507,-42.24263854713696],[145.3220742355374,-42.240762053122175]],[[147.14102404501256,-43.31641328183527],[147.1010705607056,-43.356721257017746],[147.0999658602423,-43.366792537406084],[147.12274424942584,-43.371286735147116],[147.12941592851334,-43.34516560337645],[147.15720875355257,-43.31621303233955],[147.14102404501256,-43.31641328183527]],[[147.9865711157293,-42.589820900423],[147.98320339057926,-42.59009784077738],[147.9835659581506,-42.59451940971504],[147.9865711157293,-42.589820900423]],[[147.63087745742308,-42.953694969006534],[147.63991857922565,-42.9175315806454],[147.63115633279108,-42.90862683209596],[147.5958200822563,-42.897707542624374],[147.57791561683794,-42.87263868184033],[147.55126792327673,-42.87925577591024],[147.60361930924014,-42.96597034450664],[147.63087745742308,-42.953694969006534]],[[147.77266421792714,-42.98905208596435],[147.80125444568716,-43.00229030951264],[147.7871592150838,-42.945221752976536],[147.77160563040218,-42.94736743654878],[147.77266421792714,-42.98905208596435]]]}},{"type":"Feature","properties":{"distributor":"TasNetworks","state":"TAS","outageUrl":"https://www.tasnetworks.com.au/outages","color":"#7f8c8d"},"geometry":{"type":"Polygon","coordinates":[[[147.81064325967458,-39.79216203015567],[147.8232389152731,-39.729710945733984],[147.83872532788857,-39.707753877409395],[147.85943964028854,-39.69897858252351],[147.89114348179967,-39.702561132243176],[147.93182970066763,-39.67142087449132],[147.9655403374773,-39.668340259039766],[148.17481649161232,-39.86673323118272],[148.19485346546426,-39.897557894850856],[148.30763675934926,-39.91733847234299],[148.33027521234118,-39.92986964816473],[148.34308261616692,-39.96149377766939],[148.33418388048946,-40.0729339729058],[148.3789328292086,-40.17039593551875],[148.36981187631685,-40.236537820348396],[148.34840565500204,-40.26376461736652],[148.3725427695326,-40.27366359053227],[148.42331755250876,-40.322518121593866],[148.45882947175213,-40.33774086340251],[148.52003879924487,-40.39877387584285],[148.52998517192734,-40.432544677284994],[148.50932246792482,-40.46988286964641],[148.45450779654996,-40.49346312945314],[148.44725021072435,-40.51461202833102],[148.4274046707209,-40.53120131078894],[148.38518739660532,-40.52857767590675],[148.34513181354453,-40.54818106006612],[148.30635088119064,-40.53171347568874],[148.29567517634493,-40.482803789308974],[148.2656364607863,-40.57039596038319],[148.22882964509668,-40.62431817848291],[148.2072478137398,-40.639124160696646],[148.17689602140612,-40.63796971193],[148.09027198704206,-40.5946712740294],[148.0632397393046,-40.54635656369743],[148.0632172273343,-40.521232026739945],[148.07526436989255,-40.49882069156098],[147.97869495369508,-40.46530835677619],[147.95434047939364,-40.41956088858914],[147.96067790502246,-40.37627993676549],[147.98454924081608,-40.344092646375145],[148.0791686289294,-40.303419171473685],[148.01302147034568,-40.26771463780327],[147.9951559902474,-40.23368055946186],[147.9964335660645,-40.20810644699235],[147.9703317091631,-40.176021367796714],[147.9711045471511,-40.13698955970376],[147.93378576279326,-40.128136725454354],[147.91410261180894,-40.10976653720573],[147.90595299043025,-40.0787091449538],[147.86556275115217,-40.07155836006156],[147.8457874435776,-40.05418257720722],[147.83951631141932,-40.02428481320712],[147.86070239999717,-39.97420143072375],[147.8525376689425,-39.95122369504733],[147.82664117517126,-39.95903215761977],[147.79194702801195,-39.95250890189965],[147.73036606967574,-39.91402754317368],[147.7154781158874,-39.89307355707136],[147.71448959337215,-39.86738808404054],[147.72466207112865,-39.84843259336088],[147.81064325967458,-39.79216203015567]],[[148.1689260922095,-40.304748737790455],[148.265164537157,-40.287365299193624],[148.2818451654195,-40.27693335546543],[148.23745967488267,-40.25538752600587],[148.21962827147402,-40.28176026325793],[148.1689260922095,-40.304748737790455]]]}}]}