{
    "type": "FeatureCollection",
    "features": [
        {
            "type": "Feature",
            "properties": {
                "distributor": "Ausgrid",
                "state": "NSW",
                "outageUrl": "https://www.ausgrid.com.au/Outages/Current-Outages",
                "color": "#d35400"
            },
            "geometry": {
                "type": "Polygon",
                "coordinates": [
                    [
                        [
                            152.2257,
                            -32.7295801
                        ],
                        [
                            152.2228766,
                            -32.7644083
                        ],
                        [
                            152.188055,
                            -32.7897293
                        ],
                        [
                            151.9972,
                            -32.8419
                        ],
                        [
                            151.8602,
                            -32.9016
                        ],
                        [
                            151.7811,
                            -32.9896
                        ],
                        [
                            151.7717,
                            -33.042
                        ],
                        [
                            151.709,
                            -33.09
                        ],
                        [
                            151.6078,
                            -33.3166
                        ],
                        [
                            151.4873,
                            -33.4535
                        ],
                        [
                            151.4662,
                            -33.548
                        ],
                        [
                            151.3727,
                            -33.5835
                        ],
                        [
                            151.3474,
                            -33.781
                        ],
                        [
                            151.322654,
                            -33.8368594
                        ],
                        [
                            151.2962147,
                            -33.8869894
                        ],
                        [
                            151.2736865,
                            -33.9672906
                        ],
                        [
                            151.2358324,
                            -34.0419833
                        ],
                        [
                            151.1782915,
                            -34.1043991
                        ],
                        [
                            151.0712493,
                            -34.1911941
                        ],
                        [
                            150.9166516,
                            -34.1374768
                        ],
                        [
                            150.9757274,
                            -33.9161036
                        ],
                        [
                            151.0030333,
                            -33.8559185
                        ],
                        [
                            151.0601208,
                            -33.8226257
                        ],
                        [
                            151.05,
                            -33.75
                        ],
                        [
                            151.0826733,
                            -33.5087165
                        ],
                        [
                            151.1006837,
                            -33.0611491
                        ],
                        [
                            150.8812839,
                            -32.9705363
                        ],
                        [
                            150.6404462,
                            -33.087019
                        ],
                        [
                            150.4518406,
                            -33.0730121
                        ],
                        [
                            150.4412148,
                            -32.9373537
                        ],
                        [
                            150.3503254,
                            -32.8495932
                        ],
                        [
                            150.1714623,
                            -32.7575183
                        ],
                        [
                            150.1584731,
                            -32.542066
                        ],
                        [
                            150.2813461,
                            -32.3909817
                        ],
                        [
                            150.1481987,
                            -32.3684927
                        ],
                        [
                            149.9997254,
                            -32.3950659
                        ],
                        [
                            150,
                            -32.05
                        ],
                        [
                            150.3,
                            -31.85
                        ],
                        [
                            150.55,
                            -31.75
                        ],
                        [
                            150.7958372,
                            -31.728989
                        ],
                        [
                            150.8822002,
                            -31.7212578
                        ],
                        [
                            150.9328845,
                            -31.635688
                        ],
                        [
                            151.226522,
                            -31.6845338
                        ],
                        [
                            151.2183471,
                            -31.6093738
                        ],
                        [
                            151.3630426,
                            -31.5634128
                        ],
                        [
                            151.5428902,
                            -31.6072851
                        ],
                        [
                            151.4160639,
                            -31.8409239
                        ],
                        [
                            151.4503984,
                            -31.8735582
                        ],
                        [
                            151.3939917,
                            -31.9374047
                        ],
                        [
                            151.2763516,
                            -32.144982
                        ],
                        [
                            151.4069562,
                            -32.3414603
                        ],
                        [
                            151.4671487,
                            -32.4315528
                        ],
                        [
                            151.4817092,
                            -32.6101615
                        ],
                        [
                            151.5612753,
                            -32.6087688
                        ],
                        [
                            151.65,
                            -32.62
                        ],
                        [
                            151.7647872,
                            -32.6068739
                        ],
                        [
                            151.763722,
                            -32.6135431
                        ],
                        [
                            151.7850285,
                            -32.6056126
                        ],
                        [
                            151.8086,
                            -32.5887186
                        ],
                        [
                            151.798069,
                            -32.6422223
                        ],
                        [
                            151.8465736,
                            -32.6493717
                        ],
                        [
                            151.8669277,
                            -32.6074907
                        ],
                        [
                            151.9572968,
                            -32.6155258
                        ],
                        [
                            151.9724558,
                            -32.6645638
                        ],
                        [
                            152.0615595,
                            -32.6901251
                        ],
                        [
                            152.1073333,
                            -32.696646
                        ],
                        [
                            152.2409169,
                            -32.7156632
                        ],
                        [
                            152.2257,
                            -32.7295801
                        ]
                    ]
                ]
            }
        },
        {
            "type": "Feature",
            "properties": {
                "distributor": "Endeavour Energy",
                "state": "NSW",
                "outageUrl": "https://www.endeavourenergy.com.au/outages/current-power-outages",
                "color": "#9b59b6"
            },
            "geometry": {
                "type": "Polygon",
                "coordinates": [
                    [
                        [
                            151.0990464,
                            -33.0625211
                        ],
                        [
                            151.081036,
                            -33.5114467
                        ],
                        [
                            151.05,
                            -33.75
                        ],
                        [
                            151.0601208,
                            -33.8221211
                        ],
                        [
                            151.0036406,
                            -33.8554141
                        ],
                        [
                            150.9759843,
                            -33.9150377
                        ],
                        [
                            150.9168734,
                            -34.1367254
                        ],
                        [
                            151.0706831,
                            -34.1920976
                        ],
                        [
                            151.0062,
                            -34.2907
                        ],
                        [
                            150.9544,
                            -34.4137
                        ],
                        [
                            150.9623,
                            -34.4988
                        ],
                        [
                            150.9213,
                            -34.5564
                        ],
                        [
                            150.9572,
                            -34.6199
                        ],
                        [
                            150.9109,
                            -34.6572
                        ],
                        [
                            150.8706,
                            -34.8064
                        ],
                        [
                            150.8039,
                            -34.8653
                        ],
                        [
                            150.8288,
                            -34.9591
                        ],
                        [
                            150.8936,
                            -35.0025
                        ],
                        [
                            150.8843,
                            -35.0966
                        ],
                        [
                            150.809,
                            -35.155
                        ],
                        [
                            150.7804,
                            -35.2196
                        ],
                        [
                            150.5846,
                            -35.2497
                        ],
                        [
                            150.5355,
                            -35.3201
                        ],
                        [
                            150.5299,
                            -35.3952
                        ],
                        [
                            150.4556,
                            -35.4837
                        ],
                        [
                            150.4452,
                            -35.5739
                        ],
                        [
                            150.4022142,
                            -35.6442121
                        ],
                        [
                            150.2944385,
                            -35.6429123
                        ],
                        [
                            150.2528977,
                            -35.6344015
                        ],
                        [
                            150.2599269,
                            -35.5694722
                        ],
                        [
                            150.2266957,
                            -35.5498549
                        ],
                        [
                            150.1795517,
                            -35.5633123
                        ],
                        [
                            150.0910534,
                            -35.5727311
                        ],
                        [
                            150.0232322,
                            -35.5390874
                        ],
                        [
                            149.9785695,
                            -35.4872483
                        ],
                        [
                            150.0000738,
                            -35.4434621
                        ],
                        [
                            150.0289901,
                            -35.3825356
                        ],
                        [
                            150.2264541,
                            -35.1741481
                        ],
                        [
                            150.126816,
                            -35.0817092
                        ],
                        [
                            149.982469,
                            -34.909057
                        ],
                        [
                            149.9763073,
                            -34.7999851
                        ],
                        [
                            150.0572894,
                            -34.7884193
                        ],
                        [
                            150.1840441,
                            -34.81444
                        ],
                        [
                            150.2527029,
                            -34.7876964
                        ],
                        [
                            150.2755892,
                            -34.766006
                        ],
                        [
                            150.3160803,
                            -34.7623904
                        ],
                        [
                            150.3284036,
                            -34.7537123
                        ],
                        [
                            150.2958347,
                            -34.732013
                        ],
                        [
                            150.1488346,
                            -34.7479264
                        ],
                        [
                            150.090016,
                            -34.7190292
                        ],
                        [
                            149.9999062,
                            -34.7089989
                        ],
                        [
                            149.9276249,
                            -34.5649499
                        ],
                        [
                            149.975489,
                            -34.4946581
                        ],
                        [
                            149.9775701,
                            -34.3401513
                        ],
                        [
                            149.8693556,
                            -34.261071
                        ],
                        [
                            149.8672745,
                            -34.1733079
                        ],
                        [
                            149.9234629,
                            -34.1130255
                        ],
                        [
                            150.0608121,
                            -33.9578162
                        ],
                        [
                            150.0254658,
                            -33.9146523
                        ],
                        [
                            150.075411,
                            -33.7054294
                        ],
                        [
                            149.9026839,
                            -33.7296632
                        ],
                        [
                            149.8761755,
                            -33.5035298
                        ],
                        [
                            149.95,
                            -33.35
                        ],
                        [
                            150,
                            -33.1
                        ],
                        [
                            149.6811305,
                            -33.0812135
                        ],
                        [
                            149.6499593,
                            -32.9975953
                        ],
                        [
                            149.8307522,
                            -32.7937354
                        ],
                        [
                            149.9440805,
                            -32.4659133
                        ],
                        [
                            149.9794746,
                            -32.4707745
                        ],
                        [
                            149.9901832,
                            -32.44682
                        ],
                        [
                            149.947381,
                            -32.4398735
                        ],
                        [
                            149.9486156,
                            -32.405828
                        ],
                        [
                            150.0010607,
                            -32.395462
                        ],
                        [
                            150.1474119,
                            -32.368368
                        ],
                        [
                            150.2810139,
                            -32.3906434
                        ],
                        [
                            150.1570752,
                            -32.5426363
                        ],
                        [
                            150.171703,
                            -32.7582503
                        ],
                        [
                            150.35,
                            -32.85
                        ],
                        [
                            150.4404533,
                            -32.9372011
                        ],
                        [
                            150.4518017,
                            -33.0730413
                        ],
                        [
                            150.640599,
                            -33.0872171
                        ],
                        [
                            150.8796466,
                            -32.9719099
                        ],
                        [
                            151.0990464,
                            -33.0625211
                        ]
                    ]
                ]
            }
        },
        {
            "type": "Feature",
            "properties": {
                "distributor": "Essential Energy",
                "state": "NSW",
                "outageUrl": "https://www.essentialenergy.com.au/outages-and-faults/power-outages",
                "color": "#c0392b"
            },
            "geometry": {
                "type": "Polygon",
                "coordinates": [
                    [
                        [
                            144.1988,
                            -35.6966
                        ],
                        [
                            143.55,
                            -35.34
                        ],
                        [
                            143.3318,
                            -34.8209
                        ],
                        [
                            142.5859,
                            -34.6963
                        ],
                        [
                            142.16,
                            -34.2
                        ],
                        [
                            141.91,
                            -34.12
                        ],
                        [
                            141.4838,
                            -34.1703
                        ],
                        [
                            141.0207,
                            -34.0027
                        ],
                        [
                            141.0186,
                            -34.005
                        ],
                        [
                            141.007,
                            -29.0
                        ],
                        [
                            148.9665,
                            -29.0055
                        ],
                        [
                            149.2056,
                            -28.4488
                        ],
                        [
                            149.543,
                            -28.0376
                        ],
                        [
                            149.8989,
                            -27.8456
                        ],
                        [
                            150.37,
                            -27.72
                        ],
                        [
                            150.6,
                            -27.85
                        ],
                        [
                            151.0498,
                            -28.0376
                        ],
                        [
                            151.5582,
                            -28.4
                        ],
                        [
                            151.4658,
                            -28.6924
                        ],
                        [
                            151.5952,
                            -28.9434
                        ],
                        [
                            151.9,
                            -29.0
                        ],
                        [
                            152.55,
                            -28.68
                        ],
                        [
                            152.65,
                            -28.78
                        ],
                        [
                            152.75,
                            -28.58
                        ],
                        [
                            152.9772,
                            -28.5707
                        ],
                        [
                            153.1,
                            -28.42
                        ],
                        [
                            153.5723,
                            -28.1797
                        ],
                        [
                            153.5581,
                            -28.1446
                        ],
                        [
                            153.5752,
                            -28.1417
                        ],
                        [
                            153.5898,
                            -28.1402
                        ],
                        [
                            153.635,
                            -28.2639
                        ],
                        [
                            153.6069,
                            -28.5024
                        ],
                        [
                            153.6746,
                            -28.6585
                        ],
                        [
                            153.6485,
                            -28.8769
                        ],
                        [
                            153.5125,
                            -29.0267
                        ],
                        [
                            153.482,
                            -29.0917
                        ],
                        [
                            153.4868,
                            -29.1702
                        ],
                        [
                            153.3951,
                            -29.2945
                        ],
                        [
                            153.4079,
                            -29.4765
                        ],
                        [
                            153.3678,
                            -29.5871
                        ],
                        [
                            153.3388,
                            -29.8365
                        ],
                        [
                            153.2467,
                            -30.0334
                        ],
                        [
                            153.2475,
                            -30.1434
                        ],
                        [
                            153.093,
                            -30.4877
                        ],
                        [
                            153.0347,
                            -30.737
                        ],
                        [
                            153.0454,
                            -30.8123
                        ],
                        [
                            153.1346,
                            -30.9094
                        ],
                        [
                            153.0883,
                            -31.0293
                        ],
                        [
                            153.1033,
                            -31.093
                        ],
                        [
                            153.0066,
                            -31.2412
                        ],
                        [
                            153.023,
                            -31.3227
                        ],
                        [
                            152.9653,
                            -31.4069
                        ],
                        [
                            152.9763,
                            -31.5006
                        ],
                        [
                            152.8909,
                            -31.5874
                        ],
                        [
                            152.8912,
                            -31.6577
                        ],
                        [
                            152.7905,
                            -31.8102
                        ],
                        [
                            152.7842,
                            -31.869
                        ],
                        [
                            152.6442,
                            -31.9769
                        ],
                        [
                            152.5963,
                            -32.0492
                        ],
                        [
                            152.5653,
                            -32.1533
                        ],
                        [
                            152.6127,
                            -32.2196
                        ],
                        [
                            152.5799,
                            -32.2807
                        ],
                        [
                            152.5983,
                            -32.3228
                        ],
                        [
                            152.575,
                            -32.469
                        ],
                        [
                            152.3382,
                            -32.6385
                        ],
                        [
                            152.253,
                            -32.6504
                        ],
                        [
                            152.2409,
                            -32.7156
                        ],
                        [
                            152.0615,
                            -32.6899
                        ],
                        [
                            151.9727,
                            -32.6644
                        ],
                        [
                            151.9576,
                            -32.6151
                        ],
                        [
                            151.8669,
                            -32.6074
                        ],
                        [
                            151.8465,
                            -32.6493
                        ],
                        [
                            151.7981,
                            -32.6421
                        ],
                        [
                            151.8088,
                            -32.5884
                        ],
                        [
                            151.7848,
                            -32.6056
                        ],
                        [
                            151.7638,
                            -32.6136
                        ],
                        [
                            151.7648,
                            -32.6069
                        ],
                        [
                            151.65,
                            -32.62
                        ],
                        [
                            151.5629,
                            -32.6085
                        ],
                        [
                            151.4819,
                            -32.6102
                        ],
                        [
                            151.467,
                            -32.4312
                        ],
                        [
                            151.2791,
                            -32.1445
                        ],
                        [
                            151.3939,
                            -31.9386
                        ],
                        [
                            151.4494,
                            -31.8725
                        ],
                        [
                            151.4174,
                            -31.8403
                        ],
                        [
                            151.5423,
                            -31.6075
                        ],
                        [
                            151.3621,
                            -31.5624
                        ],
                        [
                            151.2186,
                            -31.6083
                        ],
                        [
                            151.225,
                            -31.6835
                        ],
                        [
                            150.9327,
                            -31.6354
                        ],
                        [
                            150.8825,
                            -31.7204
                        ],
                        [
                            150.55,
                            -31.75
                        ],
                        [
                            150.3,
                            -31.85
                        ],
                        [
                            150.0,
                            -32.05
                        ],
                        [
                            150.0002,
                            -32.3964
                        ],
                        [
                            149.9487,
                            -32.4055
                        ],
                        [
                            149.9469,
                            -32.44
                        ],
                        [
                            149.9896,
                            -32.447
                        ],
                        [
                            149.979,
                            -32.4708
                        ],
                        [
                            149.943,
                            -32.4654
                        ],
                        [
                            149.8837,
                            -32.639
                        ],
                        [
                            149.8299,
                            -32.7907
                        ],
                        [
                            149.775,
                            -32.8575
                        ],
                        [
                            149.6511,
                            -32.995
                        ],
                        [
                            149.6832,
                            -33.0822
                        ],
                        [
                            150.0,
                            -33.1
                        ],
                        [
                            149.95,
                            -33.35
                        ],
                        [
                            149.8757,
                            -33.5025
                        ],
                        [
                            149.9023,
                            -33.7297
                        ],
                        [
                            150.0753,
                            -33.7055
                        ],
                        [
                            150.0253,
                            -33.9145
                        ],
                        [
                            150.0614,
                            -33.9578
                        ],
                        [
                            149.9646,
                            -34.0664
                        ],
                        [
                            149.9182,
                            -34.1188
                        ],
                        [
                            149.8672,
                            -34.1733
                        ],
                        [
                            149.8692,
                            -34.2612
                        ],
                        [
                            149.977,
                            -34.3414
                        ],
                        [
                            149.9755,
                            -34.4946
                        ],
                        [
                            149.9274,
                            -34.565
                        ],
                        [
                            149.9999,
                            -34.709
                        ],
                        [
                            150.0901,
                            -34.719
                        ],
                        [
                            150.1488,
                            -34.748
                        ],
                        [
                            150.2956,
                            -34.732
                        ],
                        [
                            150.3284,
                            -34.7537
                        ],
                        [
                            150.3163,
                            -34.7623
                        ],
                        [
                            150.2757,
                            -34.7659
                        ],
                        [
                            150.253,
                            -34.7875
                        ],
                        [
                            150.1841,
                            -34.8145
                        ],
                        [
                            150.0571,
                            -34.7882
                        ],
                        [
                            149.976,
                            -34.7999
                        ],
                        [
                            149.9819,
                            -34.9113
                        ],
                        [
                            150.1265,
                            -35.082
                        ],
                        [
                            150.2262,
                            -35.1741
                        ],
                        [
                            150.0284,
                            -35.3826
                        ],
                        [
                            149.9783,
                            -35.4875
                        ],
                        [
                            150.0234,
                            -35.5392
                        ],
                        [
                            150.091,
                            -35.5728
                        ],
                        [
                            150.1796,
                            -35.5633
                        ],
                        [
                            150.2267,
                            -35.5499
                        ],
                        [
                            150.2599,
                            -35.5694
                        ],
                        [
                            150.2529,
                            -35.6344
                        ],
                        [
                            150.2928,
                            -35.6427
                        ],
                        [
                            150.4009,
                            -35.6445
                        ],
                        [
                            150.2597,
                            -35.7691
                        ],
                        [
                            150.2789,
                            -35.8525
                        ],
                        [
                            150.1935,
                            -35.9214
                        ],
                        [
                            150.1661,
                            -36.1798
                        ],
                        [
                            150.1851,
                            -36.3309
                        ],
                        [
                            150.1139,
                            -36.4236
                        ],
                        [
                            150.1087,
                            -36.5804
                        ],
                        [
                            149.9554,
                            -36.9083
                        ],
                        [
                            149.9879,
                            -36.9481
                        ],
                        [
                            149.9771,
                            -37.0917
                        ],
                        [
                            150.033,
                            -37.1225
                        ],
                        [
                            150.0998,
                            -37.2652
                        ],
                        [
                            150.071,
                            -37.3101
                        ],
                        [
                            149.9984,
                            -37.3064
                        ],
                        [
                            150.0118,
                            -37.5334
                        ],
                        [
                            149.9332,
                            -37.5376
                        ],
                        [
                            149.9651,
                            -37.5178
                        ],
                        [
                            149.9766,
                            -37.5052
                        ],
                        [
                            149.9695,
                            -37.5024
                        ],
                        [
                            149.6842,
                            -37.3914
                        ],
                        [
                            149.693,
                            -37.3887
                        ],
                        [
                            148.5368,
                            -36.9225
                        ],
                        [
                            148.1382,
                            -36.7692
                        ],
                        [
                            148.2249,
                            -36.6427
                        ],
                        [
                            148.2184,
                            -36.5954
                        ],
                        [
                            148.1472,
                            -36.5528
                        ],
                        [
                            148.1149,
                            -36.4592
                        ],
                        [
                            148.054,
                            -36.2695
                        ],
                        [
                            148.0178,
                            -36.069
                        ],
                        [
                            147.9,
                            -36.0
                        ],
                        [
                            147.7047,
                            -35.9329
                        ],
                        [
                            147.3876,
                            -35.9391
                        ],
                        [
                            147.3074,
                            -36.0261
                        ],
                        [
                            147.112,
                            -35.9863
                        ],
                        [
                            146.92,
                            -36.08
                        ],
                        [
                            146.5,
                            -35.95
                        ],
                        [
                            146.196,
                            -36.041
                        ],
                        [
                            145.7689,
                            -35.9798
                        ],
                        [
                            145.4945,
                            -35.8369
                        ],
                        [
                            145.025,
                            -35.8533
                        ],
                        [
                            144.75,
                            -36.13
                        ],
                        [
                            144.1988,
                            -35.6966
                        ]
                    ],
                    [
                        [
                            148.8016,
                            -35.1839
                        ],
                        [
                            148.7604,
                            -35.4481
                        ],
                        [
                            148.8303,
                            -35.7498
                        ],
                        [
                            148.9363,
                            -35.9006
                        ],
                        [
                            148.9509,
                            -35.909
                        ],
                        [
                            148.9668,
                            -35.9032
                        ],
                        [
                            149.15,
                            -35.72
                        ],
                        [
                            149.3912,
                            -35.556
                        ],
                        [
                            149.3999,
                            -35.5414
                        ],
                        [
                            149.4,
                            -35.2068
                        ],
                        [
                            149.394,
                            -35.1925
                        ],
                        [
                            149.3834,
                            -35.1871
                        ],
                        [
                            148.9955,
                            -35.1214
                        ],
                        [
                            148.8122,
                            -35.1763
                        ],
                        [
                            148.8016,
                            -35.1839
                        ]
                    ]
                ]
            }
        },
        {
            "type": "Feature",
            "properties": {
                "distributor": "Evoenergy",
                "state": "ACT",
                "outageUrl": "https://www.evoenergy.com.au/residents/emergencies-faults-outages/outages",
                "color": "#2c3e50"
            },
            "geometry": {
                "type": "Polygon",
                "coordinates": [
                    [
                        [
                            148.9955,
                            -35.1214
                        ],
                        [
                            149.3834,
                            -35.1871
                        ],
                        [
                            149.394,
                            -35.1925
                        ],
                        [
                            149.4,
                            -35.2068
                        ],
                        [
                            149.3999,
                            -35.5414
                        ],
                        [
                            149.3912,
                            -35.556
                        ],
                        [
                            149.15,
                            -35.72
                        ],
                        [
                            148.9668,
                            -35.9032
                        ],
                        [
                            148.9509,
                            -35.909
                        ],
                        [
                            148.9363,
                            -35.9006
                        ],
                        [
                            148.8303,
                            -35.7498
                        ],
                        [
                            148.7604,
                            -35.4481
                        ],
                        [
                            148.8016,
                            -35.1839
                        ],
                        [
                            148.8122,
                            -35.1763
                        ],
                        [
                            148.9955,
                            -35.1214
                        ]
                    ]
                ]
            }
        }
    ]
}