{
    "type": "FeatureCollection",
    "features": [
        {
            "type": "Feature",
            "properties": {
                "distributor": "SA Power Networks",
                "state": "SA",
                "outageUrl": "https://www.sapowernetworks.com.au/outages/",
                "color": "#e67e22"
            },
            "geometry": {
                "type": "Polygon",
                "coordinates": [
                    [
                        [
                            137.2382,
                            -36.0278
                        ],
                        [
                            137.148,
                            -36.0867
                        ],
                        [
                            136.7142,
                            -36.1073
                        ],
                        [
                            136.4882,
                            -35.912
                        ],
                        [
                            136.5836,
                            -35.7141
                        ],
                        [
                            137.3308,
                            -35.5381
                        ],
                        [
                            137.624,
                            -35.5378
                        ],
                        [
                            137.6657,
                            -35.566
                        ],
                        [
                            137.6796,
                            -35.6968
                        ],
                        [
                            137.795,
                            -35.6979
                        ],
                        [
                            137.8324,
                            -35.7489
                        ],
                        [
                            137.9748,
                            -35.6856
                        ],
                        [
                            138.1596,
                            -35.7838
                        ],
                        [
                            138.1599,
                            -35.8907
                        ],
                        [
                            138.0327,
                            -35.9635
                        ],
                        [
                            137.7599,
                            -35.9177
                        ],
                        [
                            137.6674,
                            -35.9455
                        ],
                        [
                            137.6351,
                            -36.0556
                        ],
                        [
                            137.4629,
                            -36.1274
                        ],
                        [
                            137.2382,
                            -36.0278
                        ]
                    ]
                ]
            }
        },
        {
            "type": "Feature",
            "properties": {
                "distributor": "SA Power Networks",
                "state": "SA",
                "outageUrl": "https://outage.apps.sapowernetworks.com.au/OutageReport/OutageMap",
                "color": "#e67e22"
            },
            "geometry": {
                "type": "Polygon",
                "coordinates": [
                    [
                        [
                            134.4364,
                            -33.7645
                        ],
                        [
                            134.5567,
                            -33.6554
                        ],
                        [
                            134.5911,
                            -33.7511
                        ],
                        [
                            134.482,
                            -33.8276
                        ],
                        [
                            134.4364,
                            -33.7645
                        ]
                    ]
                ]
            }
        },
        {
            "type": "Feature",
            "properties": {
                "distributor": "SA Power Networks",
                "state": "SA",
                "outageUrl": "https://outage.apps.sapowernetworks.com.au/OutageReport/OutageMap",
                "color": "#e67e22"
            },
            "geometry": {
                "type": "Polygon",
                "coordinates": [
                    [
                        [
                            141.0419,
                            -38.0917
                        ],
                        [
                            141.0123,
                            -38.1187
                        ],
                        [
                            140.6783,
                            -38.1115
                        ],
                        [
                            140.3723,
                            -37.9556
                        ],
                        [
                            140.2076,
                            -37.6976
                        ],
                        [
                            140.0677,
                            -37.5528
                        ],
                        [
                            139.957,
                            -37.519
                        ],
                        [
                            139.7058,
                            -37.2085
                        ],
                        [
                            139.7311,
                            -37.1227
                        ],
                        [
                            139.6283,
                            -36.9449
                        ],
                        [
                            139.7811,
                            -36.8472
                        ],
                        [
                            139.8082,
                            -36.6334
                        ],
                        [
                            139.4235,
                            -35.9895
                        ],
                        [
                            138.8731,
                            -35.5883
                        ],
                        [
                            138.7569,
                            -35.5843
                        ],
                        [
                            138.539,
                            -35.6896
                        ],
                        [
                            138.2036,
                            -35.7172
                        ],
                        [
                            138.0712,
                            -35.6481
                        ],
                        [
                            138.107,
                            -35.5087
                        ],
                        [
                            138.3981,
                            -35.3152
                        ],
                        [
                            138.4678,
                            -35.0336
                        ],
                        [
                            138.4652,
                            -34.7574
                        ],
                        [
                            138.2576,
                            -34.5309
                        ],
                        [
                            138.0824,
                            -34.2088
                        ],
                        [
                            138.0777,
                            -34.3291
                        ],
                        [
                            137.9703,
                            -34.4378
                        ],
                        [
                            137.956,
                            -34.6332
                        ],
                        [
                            137.7739,
                            -35.1693
                        ],
                        [
                            137.6686,
                            -35.2259
                        ],
                        [
                            137.4267,
                            -35.1651
                        ],
                        [
                            137.1831,
                            -35.2849
                        ],
                        [
                            137.0498,
                            -35.2729
                        ],
                        [
                            136.9198,
                            -35.3405
                        ],
                        [
                            136.8,
                            -35.279
                        ],
                        [
                            136.9957,
                            -34.8623
                        ],
                        [
                            137.4075,
                            -34.8898
                        ],
                        [
                            137.4663,
                            -34.617
                        ],
                        [
                            137.4443,
                            -34.5146
                        ],
                        [
                            137.3708,
                            -34.479
                        ],
                        [
                            137.4366,
                            -34.3464
                        ],
                        [
                            137.4088,
                            -34.1408
                        ],
                        [
                            137.4972,
                            -34.068
                        ],
                        [
                            137.5674,
                            -33.849
                        ],
                        [
                            137.8899,
                            -33.5533
                        ],
                        [
                            137.7677,
                            -33.2478
                        ],
                        [
                            137.8309,
                            -33.1517
                        ],
                        [
                            137.9951,
                            -33.1046
                        ],
                        [
                            137.9182,
                            -33.0238
                        ],
                        [
                            137.8662,
                            -32.76
                        ],
                        [
                            137.8357,
                            -32.74
                        ],
                        [
                            137.8179,
                            -33.0047
                        ],
                        [
                            137.647,
                            -33.0098
                        ],
                        [
                            137.4909,
                            -33.1635
                        ],
                        [
                            137.4087,
                            -33.4329
                        ],
                        [
                            137.2548,
                            -33.6859
                        ],
                        [
                            136.6133,
                            -33.9538
                        ],
                        [
                            136.3946,
                            -34.1141
                        ],
                        [
                            136.2647,
                            -34.3375
                        ],
                        [
                            136.177,
                            -34.3855
                        ],
                        [
                            136.1327,
                            -34.5664
                        ],
                        [
                            135.9828,
                            -34.564
                        ],
                        [
                            135.9856,
                            -34.651
                        ],
                        [
                            135.9229,
                            -34.7403
                        ],
                        [
                            136.0443,
                            -34.7097
                        ],
                        [
                            136.0427,
                            -34.9389
                        ],
                        [
                            136.1012,
                            -34.9053
                        ],
                        [
                            136.2328,
                            -35.0015
                        ],
                        [
                            136.1578,
                            -35.1109
                        ],
                        [
                            136.056,
                            -34.9834
                        ],
                        [
                            135.9517,
                            -35.0502
                        ],
                        [
                            135.7764,
                            -34.9102
                        ],
                        [
                            135.7086,
                            -34.9892
                        ],
                        [
                            135.6045,
                            -34.9892
                        ],
                        [
                            135.4294,
                            -34.7701
                        ],
                        [
                            135.2872,
                            -34.7171
                        ],
                        [
                            135.2712,
                            -34.6371
                        ],
                        [
                            135.0737,
                            -34.6264
                        ],
                        [
                            135.1854,
                            -34.3925
                        ],
                        [
                            135.3269,
                            -34.4803
                        ],
                        [
                            135.2856,
                            -34.2453
                        ],
                        [
                            135.1866,
                            -34.1494
                        ],
                        [
                            135.2153,
                            -34.0131
                        ],
                        [
                            134.805,
                            -33.6576
                        ],
                        [
                            134.8165,
                            -33.4844
                        ],
                        [
                            134.7746,
                            -33.3791
                        ],
                        [
                            134.4648,
                            -33.2027
                        ],
                        [
                            134.311,
                            -33.2443
                        ],
                        [
                            134.2047,
                            -33.0864
                        ],
                        [
                            134.1123,
                            -33.0526
                        ],
                        [
                            134.136,
                            -32.985
                        ],
                        [
                            134.0316,
                            -32.9576
                        ],
                        [
                            134.0786,
                            -32.8337
                        ],
                        [
                            134.0292,
                            -32.7015
                        ],
                        [
                            134.2401,
                            -32.6864
                        ],
                        [
                            134.2323,
                            -32.6112
                        ],
                        [
                            134.1202,
                            -32.5034
                        ],
                        [
                            133.8302,
                            -32.5768
                        ],
                        [
                            133.825,
                            -32.4232
                        ],
                        [
                            133.8787,
                            -32.3759
                        ],
                        [
                            133.8167,
                            -32.3005
                        ],
                        [
                            133.7104,
                            -32.2668
                        ],
                        [
                            133.6312,
                            -32.3466
                        ],
                        [
                            133.5272,
                            -32.3547
                        ],
                        [
                            133.4979,
                            -32.301
                        ],
                        [
                            133.5688,
                            -32.2165
                        ],
                        [
                            133.2756,
                            -32.264
                        ],
                        [
                            133.1365,
                            -32.2404
                        ],
                        [
                            132.7584,
                            -31.9951
                        ],
                        [
                            132.5241,
                            -31.9859
                        ],
                        [
                            132.4974,
                            -32.0694
                        ],
                        [
                            132.2221,
                            -32.0766
                        ],
                        [
                            131.7633,
                            -31.7677
                        ],
                        [
                            131.1753,
                            -31.5261
                        ],
                        [
                            130.8369,
                            -31.6461
                        ],
                        [
                            130.1588,
                            -31.6192
                        ],
                        [
                            129.0045,
                            -31.7342
                        ],
                        [
                            128.9578,
                            -31.7048
                        ],
                        [
                            128.9911,
                            -31.6907
                        ],
                        [
                            128.9941,
                            -25.9554
                        ],
                        [
                            128.9941,
                            -26.0446
                        ],
                        [
                            129.0,
                            -26.0
                        ],
                        [
                            138.0,
                            -26.0
                        ],
                        [
                            138.0005,
                            -26.0
                        ],
                        [
                            141.0,
                            -26.0
                        ],
                        [
                            141.0,
                            -29.0
                        ],
                        [
                            141.0,
                            -38.0754
                        ],
                        [
                            141.0419,
                            -38.0917
                        ]
                    ],
                    [
                        [
                            139.0746,
                            -35.5039
                        ],
                        [
                            139.1902,
                            -35.4721
                        ],
                        [
                            139.3178,
                            -35.442
                        ],
                        [
                            139.194,
                            -35.3642
                        ],
                        [
                            139.014,
                            -35.4501
                        ],
                        [
                            139.0746,
                            -35.5039
                        ]
                    ],
                    [
                        [
                            139.2758,
                            -35.6435
                        ],
                        [
                            139.3002,
                            -35.6431
                        ],
                        [
                            139.3056,
                            -35.6147
                        ],
                        [
                            139.277,
                            -35.5966
                        ],
                        [
                            139.2758,
                            -35.6435
                        ]
                    ],
                    [
                        [
                            133.6485,
                            -32.1991
                        ],
                        [
                            133.6359,
                            -32.1518
                        ],
                        [
                            133.5778,
                            -32.2144
                        ],
                        [
                            133.6485,
                            -32.1991
                        ]
                    ]
                ]
            }
        }
    ]
}