{"type":"FeatureCollection","features":[{"type":"Feature","properties":{"distributor":"Western Power","state":"WA","outageUrl":"https://www.westernpower.com.au/faults-outages/power-outages/","color":"#2980b9"},"geometry":{"type":"Polygon","coordinates":[[[119.8267,-34.0266],[119.6135,-34.1662],[119.5285,-34.3026],[119.5528,-34.3241],[119.195,-34.5674],[118.9341,-34.5047],[118.7954,-34.5815],[118.7485,-34.6732],[118.468,-34.7864],[118.4246,-34.9382],[118.2294,-34.9792],[118.2104,-35.0605],[118.0175,-35.0465],[118.0363,-35.115],[117.9374,-35.1648],[117.7014,-35.0982],[117.6419,-35.1547],[117.6,-35.15],[117.3657,-35.1031],[117.2089,-35.0534],[117.1518,-35.1],[117.0859,-35.1],[116.7433,-35.0534],[116.6889,-35.0736],[116.5518,-35.0565],[116.3504,-34.9581],[115.9598,-34.8764],[115.8791,-34.7293],[115.5892,-34.4849],[115.2797,-34.3462],[115.1055,-34.4062],[114.9697,-34.2604],[114.9168,-33.884],[114.9487,-33.4974],[115.0019,-33.4786],[115.2064,-33.5984],[115.3512,-33.5871],[115.481,-33.4831],[115.623,-33.2635],[115.6294,-33.0284],[115.5576,-32.6617],[115.6755,-32.4752],[115.6887,-32.3507],[115.6296,-32.2739],[115.7118,-32.1813],[115.6773,-31.7862],[115.2767,-31.0164],[115.1414,-30.8484],[115.0134,-30.5217],[114.8988,-30.032],[114.9378,-29.5084],[114.8035,-29.1321],[114.5693,-28.8647],[114.55,-28.15],[114.85,-28.5],[115.4,-28.5],[115.9,-29.0],[116.5,-29.6],[116.7,-30.27],[117.3,-30.7],[118.0,-31.0],[118.28,-31.48],[119.4257,-31.4514],[119.4,-31.4],[120.95,-30.85],[120.9567,-30.86],[121.0,-30.6],[121.6,-30.6],[121.8,-31.0],[121.75,-31.25],[121.1,-31.15],[121.0175,-31.0126],[119.5242,-31.5906],[120.15,-33.58],[119.8647,-34.015],[119.8267,-34.0266]]]}},{"type":"Feature","properties":{"distributor":"Horizon Power","state":"WA","outageUrl":"https://www.horizonpower.com.au/faults-outages/","color":"#16a085"},"geometry":{"type":"Polygon","coordinates":[[[113.1483,-25.1495],[113.061,-25.3206],[113.0199,-25.2815],[113.034,-25.06],[113.1067,-24.7472],[113.156,-24.711],[113.1959,-24.7572],[113.1483,-25.1495]]]}},{"type":"Feature","properties":{"distributor":"Horizon Power","state":"WA","outageUrl":"https://www.horizonpower.com.au/faults-outages/","color":"#16a085"},"geometry":{"type":"Polygon","coordinates":[[[113.0481,-25.4788],[113.2514,-26.0715],[113.2814,-25.9589],[113.3922,-25.9775],[113.4303,-26.1187],[113.4852,-26.1271],[113.5057,-26.2296],[113.5908,-26.284],[113.601,-26.4019],[113.6657,-26.4177],[113.703,-26.5929],[113.7851,-26.5621],[113.8388,-26.3605],[113.6551,-26.2561],[113.5384,-26.1148],[113.5143,-25.9567],[113.3767,-25.7364],[113.4751,-25.4871],[113.5328,-25.4676],[113.5744,-25.5958],[113.7698,-25.7821],[113.7772,-26.1428],[113.8304,-26.0387],[113.814,-25.9219],[113.9027,-25.9097],[114.0543,-26.3577],[114.0994,-26.3891],[114.1869,-26.3002],[114.1428,-25.9756],[114.2193,-25.9374],[114.2161,-25.8699],[114.1186,-25.8151],[113.7684,-25.202],[113.6387,-25.1059],[113.5692,-24.7629],[113.3472,-24.416],[113.4184,-23.894],[113.5667,-23.6],[113.7238,-23.44],[113.7035,-23.1607],[113.7609,-23.0623],[113.7577,-22.9088],[113.7229,-22.8191],[113.6178,-22.7468],[113.6078,-22.5507],[113.6927,-22.4539],[113.9844,-21.8237],[114.1669,-21.7578],[114.2158,-21.7875],[114.1223,-22.1767],[114.1433,-22.2771],[114.2135,-22.3067],[114.1788,-22.4669],[114.2699,-22.4016],[114.3239,-22.4188],[114.4746,-22.0862],[114.4559,-21.9875],[114.5332,-21.975],[114.6171,-21.8075],[114.9129,-21.6524],[115.0929,-21.6221],[115.4516,-21.4652],[115.5734,-21.3088],[115.7865,-21.1927],[115.8783,-21.0484],[116.1142,-20.9369],[116.1705,-20.8099],[116.4367,-20.7711],[116.6692,-20.6257],[116.7747,-20.4921],[116.8854,-20.5169],[116.8625,-20.6606],[117.151,-20.5518],[117.3169,-20.6773],[117.6657,-20.6287],[117.8113,-20.5786],[117.9112,-20.4566],[118.1542,-20.3078],[118.3506,-20.3184],[118.7809,-20.2399],[118.9426,-20.0192],[119.0803,-19.9242],[119.4687,-19.9562],[119.5874,-20.014],[119.7214,-19.9207],[120.2287,-19.862],[120.9349,-19.594],[121.1635,-19.438],[121.3797,-19.196],[121.595,-18.8049],[121.5757,-18.6897],[121.7077,-18.6321],[121.6917,-18.5636],[121.7809,-18.4304],[121.8946,-18.4188],[122.3004,-18.0994],[122.3004,-18.0265],[122.1268,-17.9932],[122.1602,-17.7208],[122.0988,-17.5729],[122.1293,-17.2496],[122.2432,-17.0599],[122.4833,-16.8773],[122.5586,-16.7411],[122.7133,-16.7348],[122.7233,-16.5781],[122.8473,-16.4842],[122.8913,-16.3795],[123.0307,-16.3387],[123.1032,-16.4523],[123.0325,-16.5075],[123.028,-16.5705],[123.0773,-16.6451],[123.1722,-16.6624],[123.191,-16.8948],[123.2974,-16.9904],[123.5268,-17.4378],[123.5941,-17.2065],[123.5358,-17.1015],[123.5557,-16.9623],[123.6133,-16.9439],[123.7793,-17.0627],[123.7519,-16.9921],[123.7995,-16.9347],[123.6779,-16.7769],[123.4755,-16.6848],[123.4903,-16.6071],[123.3824,-16.5049],[123.4797,-16.3699],[123.586,-16.3707],[123.5966,-16.3357],[123.4975,-16.2783],[123.5326,-16.1518],[123.7376,-16.0925],[123.8674,-16.209],[123.9138,-16.1733],[124.1425,-16.2299],[124.2456,-16.3535],[124.3153,-16.363],[124.3536,-16.3211],[124.3369,-16.2002],[124.4482,-15.9566],[124.3609,-15.8859],[124.3318,-15.5169],[124.474,-15.4074],[124.3064,-15.3249],[124.2992,-15.2657],[124.423,-15.2006],[124.4815,-15.2715],[124.5907,-15.2039],[124.623,-15.3103],[124.6527,-15.2071],[124.8236,-15.2549],[124.8043,-15.1138],[124.9689,-15.0658],[124.833,-15.0032],[124.8348,-14.9391],[124.9251,-14.8916],[124.9692,-14.9364],[125.0907,-14.9284],[125.1167,-14.9937],[125.1478,-14.969],[125.1951,-14.8902],[125.0933,-14.7515],[125.1237,-14.6901],[125.0437,-14.6071],[125.1406,-14.3982],[125.2409,-14.4439],[125.2507,-14.5325],[125.3484,-14.4543],[125.4356,-14.5289],[125.4781,-14.448],[125.5617,-14.4526],[125.5406,-14.2421],[125.5887,-14.2011],[125.7603,-14.2355],[125.7781,-14.42],[125.8651,-14.4153],[125.89,-14.4882],[125.9846,-14.4923],[125.9389,-14.3664],[126.0166,-14.3194],[126.0235,-14.2167],[126.0978,-14.1566],[125.9497,-14.0865],[125.938,-13.9792],[125.9998,-13.8804],[126.1051,-13.8438],[126.2504,-13.9232],[126.2319,-14.0419],[126.2565,-14.0763],[126.242,-14.1419],[126.2515,-14.1488],[126.2947,-14.0315],[126.4055,-13.934],[126.5853,-13.9004],[126.6111,-13.9557],[126.5492,-14.0337],[126.5934,-14.104],[126.619,-14.0337],[126.6719,-14.0255],[126.6789,-13.9505],[126.7821,-13.9203],[126.7151,-13.7614],[126.9682,-13.6817],[127.1048,-13.8021],[127.1149,-13.8864],[127.1666,-13.8362],[127.4444,-13.9056],[127.4885,-14.0267],[127.6999,-14.1485],[127.9662,-14.5228],[128.2553,-14.6715],[128.2332,-14.8481],[128.1562,-14.8885],[128.1705,-15.0154],[128.2848,-14.8705],[128.3766,-14.8429],[128.3682,-14.762],[128.5241,-14.7086],[129.0379,-14.8435],[129.0049,-14.8349],[128.9693,-14.848],[129.0,-14.8678],[128.9941,-26.0446],[128.9941,-25.9554],[128.9682,-31.7213],[129.0164,-31.7172],[129.0164,-31.7279],[128.2326,-32.0617],[127.2959,-32.3176],[126.674,-32.3621],[126.1878,-32.2786],[126.0234,-32.3156],[125.5576,-32.5893],[125.0206,-32.7776],[124.8497,-32.9094],[124.335,-33.0075],[124.1336,-33.1825],[123.9846,-33.5966],[123.7952,-33.7408],[123.7562,-33.8397],[123.5388,-33.9814],[123.3919,-33.9414],[123.2843,-34.0287],[123.1509,-34.0539],[123.0136,-33.9063],[122.6324,-33.9374],[122.5651,-34.0033],[122.3558,-33.9619],[122.2755,-34.0645],[122.0925,-34.0642],[121.995,-33.8723],[121.796,-33.9426],[121.3401,-33.8601],[121.1667,-33.9136],[120.5814,-33.9355],[120.3972,-34.0185],[120.0058,-33.9721],[119.8647,-34.015],[120.15,-33.58],[119.5242,-31.5906],[121.0175,-31.0126],[121.1,-31.15],[121.75,-31.25],[121.8,-31.0],[121.6,-30.6],[121.0,-30.6],[120.9567,-30.86],[120.95,-30.85],[119.4,-31.4],[119.4257,-31.4514],[118.28,-31.48],[118.0,-31.0],[117.3,-30.7],[116.7,-30.27],[116.5,-29.6],[115.9,-29.0],[115.4,-28.5],[114.85,-28.5],[114.55,-28.15],[114.5693,-28.8647],[114.5667,-28.8617],[114.5468,-28.6686],[114.4706,-28.5163],[114.1257,-28.1273],[114.0528,-27.8653],[114.0974,-27.689],[113.9708,-27.3358],[113.5555,-26.7048],[113.2768,-26.4424],[113.1164,-26.169],[113.135,-26.1136],[112.9091,-25.7839],[112.8761,-25.5166],[112.9658,-25.4371],[113.0481,-25.4788]],[[123.8726,-16.2409],[123.8502,-16.2712],[123.9061,-16.2949],[123.8726,-16.2409]],[[124.5601,-15.9683],[124.4781,-16.0427],[124.5284,-16.1114],[124.5601,-15.9683]],[[124.9862,-15.3572],[125.0364,-15.3952],[125.0727,-15.3387],[124.9862,-15.3572]],[[125.3057,-15.0955],[125.3271,-15.0286],[125.2151,-14.9992],[125.3057,-15.0955]]]}},{"type":"Feature","properties":{"distributor":"Horizon Power","state":"WA","outageUrl":"https://www.horizonpower.com.au/faults-outages/","color":"#16a085"},"geometry":{"type":"Polygon","coordinates":[[[119.6003,-34.366],[119.5807,-34.4234],[119.4388,-34.4184],[119.3916,-34.5314],[119.3077,-34.5088],[119.2362,-34.5773],[119.195,-34.5674],[119.5528,-34.3241],[119.6003,-34.366]]]}},{"type":"Feature","properties":{"distributor":"Horizon Power","state":"WA","outageUrl":"https://www.horizonpower.com.au/faults-outages/","color":"#16a085"},"geometry":{"type":"Polygon","coordinates":[[[117.6133,-35.1817],[117.3657,-35.1031],[117.6,-35.15],[117.6419,-35.1547],[117.6133,-35.1817]]]}},{"type":"Feature","properties":{"distributor":"Horizon Power","state":"WA","outageUrl":"https://www.horizonpower.com.au/faults-outages/","color":"#16a085"},"geometry":{"type":"Polygon","coordinates":[[[116.6309,-35.0951],[116.5518,-35.0565],[116.6889,-35.0736],[116.6309,-35.0951]]]}},{"type":"Feature","properties":{"distributor":"Horizon Power","state":"WA","outageUrl":"https://www.horizonpower.com.au/faults-outages/","color":"#16a085"},"geometry":{"type":"Polygon","coordinates":[[[115.4552,-20.6228],[115.5142,-20.7501],[115.4346,-20.8786],[115.2896,-20.9012],[115.2517,-20.8529],[115.4552,-20.6228]]]}}]}