{"type":"FeatureCollection","features":[{"type":"Feature","properties":{"distributor":"Energex","state":"QLD","outageUrl":"https://www.energex.com.au/home/power-outages/outage-finder/outage-finder-map","color":"#f1c40f"},"geometry":{"type":"Polygon","coordinates":[[[153.1806,-26.3846],[153.1583,-26.6292],[153.2532,-27.0833],[153.112,-27.152],[153.1635,-27.1952],[153.1239,-27.2906],[153.2054,-27.3382],[153.3557,-27.5832],[153.3899,-27.3865],[153.3266,-27.2357],[153.3198,-27.0443],[153.4534,-26.9764],[153.5046,-27.0004],[153.4694,-27.3539],[153.5955,-27.4152],[153.4636,-27.9112],[153.5649,-28.1616],[153.509,-28.2119],[153.1,-28.42],[153.0,-28.55],[152.9,-28.68],[152.75,-28.58],[152.689,-28.7019],[152.55,-28.25],[152.6,-28.15],[152.4,-28.1],[152.45,-28.0],[152.25,-27.95],[152.3,-27.85],[152.1,-27.75],[152.0,-27.55],[152.35,-27.2],[152.5,-26.95],[152.6,-26.6],[152.95,-26.35],[153.15,-26.35],[153.1539,-26.3535],[153.1806,-26.3846]]]}},{"type":"Feature","properties":{"distributor":"Ergon Energy","state":"QLD","outageUrl":"https://www.ergon.com.au/network/outages-and-disruptions/power-outages/outage-finder-map","color":"#27ae60"},"geometry":{"type":"Polygon","coordinates":[[[148.9878,-20.0029],[149.1111,-20.3219],[148.9593,-20.3619],[148.8901,-20.3119],[148.9079,-20.2197],[148.8474,-20.167],[148.8711,-20.0472],[148.9878,-20.0029]]]}},{"type":"Feature","properties":{"distributor":"Ergon Energy","state":"QLD","outageUrl":"https://www.ergon.com.au/network/outages-and-disruptions/power-outages/outage-finder-map","color":"#27ae60"},"geometry":{"type":"Polygon","coordinates":[[[138.0,-26.0],[138.002,-16.5424],[138.045,-16.5809],[138.0441,-16.5334],[138.0195,-16.5047],[138.0247,-16.5036],[138.3089,-16.7025],[138.6657,-16.7363],[139.0328,-16.8566],[139.1979,-17.0137],[139.1993,-17.1578],[139.2703,-17.2854],[139.4582,-17.3345],[139.6612,-17.4915],[139.9424,-17.5802],[140.0199,-17.6606],[140.4906,-17.5945],[140.8089,-17.4102],[140.9065,-16.9985],[141.1591,-16.6775],[141.2408,-16.5005],[141.3841,-16.0609],[141.3338,-15.9289],[141.3961,-15.6396],[141.616,-15.0526],[141.4781,-14.489],[141.554,-14.1288],[141.424,-13.8619],[141.4836,-13.5584],[141.6453,-13.2636],[141.5412,-12.964],[141.6001,-12.8605],[141.7038,-12.8095],[141.7882,-12.6235],[141.7234,-12.5818],[141.5808,-12.6039],[141.5507,-12.5164],[141.7925,-11.9845],[141.9032,-11.9104],[142.0866,-11.3298],[142.1125,-10.9299],[142.3098,-10.8531],[142.4108,-10.6899],[142.5758,-10.6538],[142.6616,-10.745],[142.6089,-10.8238],[142.784,-10.9561],[142.8473,-11.2656],[142.9176,-11.3772],[142.8706,-11.4834],[142.9067,-11.8137],[143.0008,-11.8848],[143.1126,-11.8582],[143.2935,-11.9539],[143.1297,-12.164],[143.1246,-12.2899],[143.2831,-12.3538],[143.3325,-12.5053],[143.4741,-12.5919],[143.4278,-12.8016],[143.5853,-12.8189],[143.5477,-13.0725],[143.6414,-13.5235],[143.5792,-13.7471],[143.7292,-14.0005],[143.8205,-14.3737],[143.9436,-14.4577],[144.111,-14.3571],[144.1789,-14.212],[144.3049,-14.261],[144.4992,-14.1186],[144.674,-14.3214],[144.6995,-14.5106],[144.9223,-14.5752],[145.0481,-14.7637],[145.2425,-14.791],[145.2972,-14.9007],[145.3863,-14.9233],[145.2817,-15.162],[145.3933,-15.2395],[145.2945,-15.445],[145.4117,-15.7398],[145.4028,-15.892],[145.506,-16.0563],[145.5129,-16.2675],[145.4486,-16.4194],[145.8084,-16.8491],[145.9973,-16.8595],[145.9321,-17.0555],[146.118,-17.3836],[146.1155,-17.5027],[146.1939,-17.6336],[146.0528,-18.2191],[146.1795,-18.2208],[146.2298,-18.1523],[146.3448,-18.2194],[146.329,-18.2998],[146.399,-18.4128],[146.3233,-18.8603],[146.4901,-19.0394],[146.6657,-19.137],[146.8934,-19.0646],[146.9118,-19.1159],[146.8532,-19.2035],[146.911,-19.2515],[147.0458,-19.1374],[147.157,-19.3665],[147.3845,-19.3678],[147.3602,-19.289],[147.4465,-19.2766],[147.7028,-19.7847],[147.7219,-19.6572],[147.8404,-19.6721],[147.9462,-19.8551],[148.0815,-19.8335],[148.3076,-19.9296],[148.3253,-20.0747],[148.3933,-20.1317],[148.4202,-20.0243],[148.5703,-20.009],[148.7263,-20.2116],[148.8116,-20.2079],[148.98,-20.5395],[148.9309,-20.579],[148.7605,-20.5184],[148.7231,-20.5697],[148.7624,-20.6739],[148.8781,-20.7466],[148.8872,-20.8003],[149.0816,-20.8608],[149.112,-20.945],[149.1855,-20.9677],[149.2716,-21.0714],[149.247,-21.2095],[149.3313,-21.2608],[149.381,-21.4467],[149.5325,-21.5237],[149.4861,-21.7963],[149.6132,-22.184],[149.7483,-22.3936],[149.8246,-22.3345],[149.9273,-22.4394],[149.8227,-22.1434],[149.9168,-21.9971],[149.9607,-22.0276],[149.9574,-22.1345],[150.0787,-22.1035],[150.2279,-22.3448],[150.5184,-22.5084],[150.4962,-22.396],[150.4142,-22.3205],[150.4497,-22.1825],[150.4999,-22.1758],[150.7081,-22.3247],[150.7981,-22.4411],[150.8729,-22.7046],[150.81,-23.1432],[150.8826,-23.2357],[150.8358,-23.3205],[150.9267,-23.4995],[151.0235,-23.4005],[151.271,-23.4573],[151.2748,-23.5954],[151.3417,-23.7024],[151.3051,-23.8018],[151.4548,-23.9511],[151.5769,-23.9983],[151.624,-23.939],[151.8118,-23.9917],[151.85,-24.1121],[151.936,-24.1218],[152.1534,-24.5588],[152.5064,-24.7791],[152.5485,-24.9784],[152.6717,-25.1202],[152.674,-25.1869],[152.939,-25.2506],[152.9851,-25.3983],[153.0231,-25.2724],[152.9741,-25.1911],[153.184,-25.0048],[153.1942,-24.9233],[153.0965,-24.7959],[153.2585,-24.654],[153.3198,-24.6712],[153.3289,-24.8632],[153.4181,-25.0221],[153.1294,-25.6711],[153.1078,-25.8102],[153.1493,-25.8893],[153.2497,-25.9293],[153.125,-26.3199],[153.1539,-26.3535],[153.15,-26.35],[152.95,-26.35],[152.6,-26.6],[152.5,-26.95],[152.35,-27.2],[152.0,-27.55],[152.1,-27.75],[152.3,-27.85],[152.25,-27.95],[152.45,-28.0],[152.4,-28.1],[152.6,-28.15],[152.55,-28.25],[152.689,-28.7019],[152.65,-28.78],[152.45,-28.62],[152.3,-28.62],[152.05,-28.75],[151.9,-29.0],[141.007,-29.0],[141.0,-26.0],[138.0,-26.0]]]}},{"type":"Feature","properties":{"distributor":"Ergon Energy","state":"QLD","outageUrl":"https://www.ergon.com.au/network/outages-and-disruptions/power-outages/outage-finder-map","color":"#27ae60"},"geometry":{"type":"Polygon","coordinates":[[[146.5648,-18.6398],[146.727,-18.7359],[146.6699,-18.8113],[146.557,-18.8003],[146.5648,-18.6398]]]}},{"type":"Feature","properties":{"distributor":"Ergon Energy","state":"QLD","outageUrl":"https://www.ergon.com.au/network/outages-and-disruptions/power-outages/outage-finder-map","color":"#27ae60"},"geometry":{"type":"Polygon","coordinates":[[[139.4306,-17.1881],[139.3576,-17.1057],[139.4868,-16.9402],[139.6199,-17.0762],[139.4306,-17.1881]]]}},{"type":"Feature","properties":{"distributor":"Ergon Energy","state":"QLD","outageUrl":"https://www.ergon.com.au/network/outages-and-disruptions/power-outages/outage-finder-map","color":"#27ae60"},"geometry":{"type":"Polygon","coordinates":[[[139.4693,-16.7023],[139.1569,-16.7981],[139.0985,-16.7602],[139.1287,-16.5877],[139.2638,-16.4314],[139.5808,-16.3506],[139.773,-16.4211],[139.7322,-16.5654],[139.5667,-16.5694],[139.5057,-16.6018],[139.4693,-16.7023]]]}},{"type":"Feature","properties":{"distributor":"Ergon Energy","state":"QLD","outageUrl":"https://www.ergon.com.au/network/outages-and-disruptions/power-outages/outage-finder-map","color":"#27ae60"},"geometry":{"type":"Polygon","coordinates":[[[142.0682,-10.6849],[142.168,-10.5541],[142.2955,-10.5284],[142.3696,-10.6028],[142.186,-10.8141],[142.1187,-10.785],[142.0682,-10.6849]]]}},{"type":"Feature","properties":{"distributor":"Ergon Energy","state":"QLD","outageUrl":"https://www.ergon.com.au/network/outages-and-disruptions/power-outages/outage-finder-map","color":"#27ae60"},"geometry":{"type":"Polygon","coordinates":[[[142.2959,-10.3055],[142.1345,-10.2293],[142.0502,-10.1196],[142.1329,-10.0058],[142.3844,-10.1828],[142.2959,-10.3055]]]}},{"type":"Feature","properties":{"distributor":"Ergon Energy","state":"QLD","outageUrl":"https://www.ergon.com.au/network/outages-and-disruptions/power-outages/outage-finder-map","color":"#27ae60"},"geometry":{"type":"Polygon","coordinates":[[[142.5693,-9.3906],[142.5933,-9.3427],[142.823,-9.366],[142.752,-9.4656],[142.6196,-9.4672],[142.5693,-9.3906]]]}},{"type":"Feature","properties":{"distributor":"Ergon Energy","state":"QLD","outageUrl":"https://www.ergon.com.au/network/outages-and-disruptions/power-outages/outage-finder-map","color":"#27ae60"},"geometry":{"type":"Polygon","coordinates":[[[142.114,-9.2434],[142.2017,-9.1946],[142.3272,-9.2739],[142.2899,-9.3225],[142.1145,-9.3],[142.114,-9.2434]]]}}]}