{
  "type": "FeatureCollection",
  "features": [
    {
      "type": "Feature",
      "properties": {
        "distributor": "CitiPower",
        "state": "VIC",
        "outageUrl": "https://www.citipower.com.au/power-outages-and-faults/live-outage-map/",
        "color": "#f39c12"
      },
      "geometry": {
        "type": "Polygon",
        "coordinates": [
          [
            [
              144.9800529,
              -37.7572959
            ],
            [
              144.980854,
              -37.7493131
            ],
            [
              145.0207619,
              -37.7544073
            ],
            [
              145.0320493,
              -37.7557007
            ],
            [
              145.0278779,
              -37.7638807
            ],
            [
              145.0326733,
              -37.7709367
            ],
            [
              145.0170365,
              -37.7686496
            ],
            [
              145.0145246,
              -37.7832607
            ],
            [
              145.0068521,
              -37.7822818
            ],
            [
              145.0021369,
              -37.7985705
            ],
            [
              145.0141269,
              -37.8031478
            ],
            [
              145.0214017,
              -37.7903734
            ],
            [
              145.0344694,
              -37.78867
            ],
            [
              145.062,
              -37.7877
            ],
            [
              145.0786869,
              -37.7801451
            ],
            [
              145.0954619,
              -37.7810722
            ],
            [
              145.1060149,
              -37.7930936
            ],
            [
              145.0994013,
              -37.8290167
            ],
            [
              145.095465,
              -37.850407
            ],
            [
              145.0397902,
              -37.8445016
            ],
            [
              145.0394153,
              -37.840727
            ],
            [
              145.0369786,
              -37.8376183
            ],
            [
              145.032719,
              -37.8371783
            ],
            [
              145.0314514,
              -37.8450267
            ],
            [
              145.0280003,
              -37.8648593
            ],
            [
              145.0376251,
              -37.8737672
            ],
            [
              144.9792006,
              -37.8668929
            ],
            [
              144.9744518,
              -37.8701452
            ],
            [
              144.9303,
              -37.868
            ],
            [
              144.93,
              -37.868
            ],
            [
              144.9298,
              -37.868
            ],
            [
              144.9295,
              -37.868
            ],
            [
              144.9292,
              -37.8679
            ],
            [
              144.929,
              -37.8678
            ],
            [
              144.9287,
              -37.8677
            ],
            [
              144.9285,
              -37.8676
            ],
            [
              144.9035,
              -37.8526
            ],
            [
              144.9032,
              -37.8524
            ],
            [
              144.903,
              -37.8522
            ],
            [
              144.9028,
              -37.852
            ],
            [
              144.9026,
              -37.8518
            ],
            [
              144.9024,
              -37.8516
            ],
            [
              144.9023,
              -37.8513
            ],
            [
              144.9022,
              -37.851
            ],
            [
              144.9021,
              -37.8508
            ],
            [
              144.902,
              -37.8505
            ],
            [
              144.897,
              -37.8205
            ],
            [
              144.897,
              -37.8202
            ],
            [
              144.897,
              -37.8199
            ],
            [
              144.897,
              -37.8196
            ],
            [
              144.8971,
              -37.8193
            ],
            [
              144.8972,
              -37.8191
            ],
            [
              144.9072,
              -37.7891
            ],
            [
              144.9073,
              -37.7888
            ],
            [
              144.9074,
              -37.7885
            ],
            [
              144.9075,
              -37.7883
            ],
            [
              144.9077,
              -37.788
            ],
            [
              144.9341115,
              -37.7571859
            ],
            [
              144.9349081,
              -37.7535121
            ],
            [
              144.9286947,
              -37.7524834
            ],
            [
              144.9268095,
              -37.7510557
            ],
            [
              144.9393955,
              -37.7526723
            ],
            [
              144.9800529,
              -37.7572959
            ]
          ]
        ]
      }
    },
    {
      "type": "Feature",
      "properties": {
        "distributor": "Jemena Electricity Networks",
        "state": "VIC",
        "outageUrl": "https://poweroutages.jemena.com.au/",
        "color": "#e74c3c"
      },
      "geometry": {
        "type": "Polygon",
        "coordinates": [
          [
            [
              144.8644173,
              -37.8619979
            ],
            [
              144.8675791,
              -37.8229204
            ],
            [
              144.8494645,
              -37.8246639
            ],
            [
              144.8398234,
              -37.8235838
            ],
            [
              144.8272675,
              -37.8228366
            ],
            [
              144.8362631,
              -37.7965322
            ],
            [
              144.8127211,
              -37.7744381
            ],
            [
              144.8318787,
              -37.7062297
            ],
            [
              144.768879,
              -37.6949125
            ],
            [
              144.7822999,
              -37.7117277
            ],
            [
              144.6655151,
              -37.6911729
            ],
            [
              144.6785365,
              -37.6765314
            ],
            [
              144.6852455,
              -37.645349
            ],
            [
              144.656853,
              -37.6233531
            ],
            [
              144.6506135,
              -37.6238574
            ],
            [
              144.6532757,
              -37.6161323
            ],
            [
              144.6198394,
              -37.5951302
            ],
            [
              144.5923767,
              -37.5853796
            ],
            [
              144.5947073,
              -37.5747525
            ],
            [
              144.5585985,
              -37.5775085
            ],
            [
              144.5519159,
              -37.5174557
            ],
            [
              144.6392977,
              -37.5112501
            ],
            [
              144.6420083,
              -37.4989384
            ],
            [
              144.6776955,
              -37.4690261
            ],
            [
              144.7888921,
              -37.4742902
            ],
            [
              144.7956027,
              -37.5074902
            ],
            [
              144.8162205,
              -37.5099108
            ],
            [
              144.8614225,
              -37.471344
            ],
            [
              144.9379151,
              -37.4803213
            ],
            [
              144.9315915,
              -37.5559899
            ],
            [
              144.9688496,
              -37.5593304
            ],
            [
              144.9850149,
              -37.5726267
            ],
            [
              144.9610664,
              -37.6348917
            ],
            [
              144.9836437,
              -37.6902778
            ],
            [
              145.052678,
              -37.6936627
            ],
            [
              145.0543425,
              -37.7081496
            ],
            [
              145.124668,
              -37.7167086
            ],
            [
              145.1142648,
              -37.7305327
            ],
            [
              145.0981016,
              -37.745876
            ],
            [
              145.0809996,
              -37.7554318
            ],
            [
              145.0619887,
              -37.7876852
            ],
            [
              145.0344535,
              -37.7885991
            ],
            [
              145.0214523,
              -37.7903438
            ],
            [
              145.0141184,
              -37.803125
            ],
            [
              145.0021605,
              -37.798567
            ],
            [
              145.0068333,
              -37.782285
            ],
            [
              145.0145827,
              -37.7834455
            ],
            [
              145.0170356,
              -37.7686642
            ],
            [
              145.0328482,
              -37.771096
            ],
            [
              145.0278689,
              -37.7640984
            ],
            [
              145.0323003,
              -37.7556408
            ],
            [
              144.9808636,
              -37.7492858
            ],
            [
              144.9800251,
              -37.7572866
            ],
            [
              144.9267033,
              -37.7510347
            ],
            [
              144.9286682,
              -37.7525253
            ],
            [
              144.934855,
              -37.7535121
            ],
            [
              144.934138,
              -37.7571439
            ],
            [
              144.9077,
              -37.788
            ],
            [
              144.9075,
              -37.7883
            ],
            [
              144.9074,
              -37.7885
            ],
            [
              144.9073,
              -37.7888
            ],
            [
              144.9072,
              -37.7891
            ],
            [
              144.8972,
              -37.8191
            ],
            [
              144.8971,
              -37.8193
            ],
            [
              144.897,
              -37.8196
            ],
            [
              144.897,
              -37.8199
            ],
            [
              144.897,
              -37.8202
            ],
            [
              144.897,
              -37.8205
            ],
            [
              144.902,
              -37.8505
            ],
            [
              144.9021,
              -37.8508
            ],
            [
              144.9022,
              -37.851
            ],
            [
              144.9023,
              -37.8513
            ],
            [
              144.9024,
              -37.8516
            ],
            [
              144.9026,
              -37.8518
            ],
            [
              144.9028,
              -37.852
            ],
            [
              144.903,
              -37.8522
            ],
            [
              144.9032,
              -37.8524
            ],
            [
              144.9035,
              -37.8526
            ],
            [
              144.9285,
              -37.8676
            ],
            [
              144.9287,
              -37.8677
            ],
            [
              144.929,
              -37.8678
            ],
            [
              144.9292,
              -37.8679
            ],
            [
              144.9295,
              -37.868
            ],
            [
              144.9298,
              -37.868
            ],
            [
              144.93,
              -37.868
            ],
            [
              144.9303,
              -37.868
            ],
            [
              144.9148896,
              -37.8762395
            ],
            [
              144.8751818,
              -37.8713904
            ],
            [
              144.8644173,
              -37.8619979
            ]
          ]
        ]
      }
    },
    {
      "type": "Feature",
      "properties": {
        "distributor": "United Energy",
        "state": "VIC",
        "outageUrl": "https://www.unitedenergy.com.au/outage-map/",
        "color": "#34495e"
      },
      "geometry": {
        "type": "Polygon",
        "coordinates": [
          [
            [
              144.9621,
              -37.9763
            ],
            [
              144.9568127,
              -37.9272773
            ],
            [
              144.9604436,
              -37.9014966
            ],
            [
              144.9744277,
              -37.8701608
            ],
            [
              144.9792049,
              -37.8668996
            ],
            [
              144.9840782,
              -37.867564
            ],
            [
              145.0383295,
              -37.8739696
            ],
            [
              145.0280062,
              -37.8646178
            ],
            [
              145.0327603,
              -37.8371376
            ],
            [
              145.0369528,
              -37.8376453
            ],
            [
              145.0392691,
              -37.8407094
            ],
            [
              145.0397956,
              -37.8444795
            ],
            [
              145.0956219,
              -37.850452
            ],
            [
              145.1000149,
              -37.826287
            ],
            [
              145.1060177,
              -37.7930892
            ],
            [
              145.0954527,
              -37.7810395
            ],
            [
              145.0787649,
              -37.7801855
            ],
            [
              145.062,
              -37.7877
            ],
            [
              145.0810109,
              -37.7554275
            ],
            [
              145.1029034,
              -37.7516223
            ],
            [
              145.1414,
              -37.7473
            ],
            [
              145.1499,
              -37.747
            ],
            [
              145.1502,
              -37.747
            ],
            [
              145.1505,
              -37.747
            ],
            [
              145.1508,
              -37.7471
            ],
            [
              145.1511,
              -37.7472
            ],
            [
              145.2088542,
              -37.8074936
            ],
            [
              145.2109692,
              -37.8759428
            ],
            [
              145.2301542,
              -37.8732987
            ],
            [
              145.235331,
              -37.9046377
            ],
            [
              145.2331994,
              -37.9272204
            ],
            [
              145.2573703,
              -37.9280307
            ],
            [
              145.2558477,
              -37.9518069
            ],
            [
              145.2814276,
              -37.9688538
            ],
            [
              145.2705654,
              -38.0184526
            ],
            [
              145.2488825,
              -38.0126637
            ],
            [
              145.2204019,
              -38.1213391
            ],
            [
              145.2294641,
              -38.1334578
            ],
            [
              145.250307,
              -38.1249037
            ],
            [
              145.2838369,
              -38.1380909
            ],
            [
              145.2637383,
              -38.2260187
            ],
            [
              145.2725694,
              -38.2434801
            ],
            [
              145.2571462,
              -38.2773786
            ],
            [
              145.2470062,
              -38.3048582
            ],
            [
              145.2258302,
              -38.3830952
            ],
            [
              145.2240826,
              -38.3902868
            ],
            [
              145.2255805,
              -38.3918033
            ],
            [
              145.2296374,
              -38.3970863
            ],
            [
              145.2375016,
              -38.4051079
            ],
            [
              145.2364405,
              -38.4108791
            ],
            [
              145.2248316,
              -38.4091673
            ],
            [
              145.2109866,
              -38.4087096
            ],
            [
              145.1824238,
              -38.4045817
            ],
            [
              145.0512,
              -38.4428
            ],
            [
              145.0382525,
              -38.488295
            ],
            [
              145.0271685,
              -38.5252176
            ],
            [
              145.0131365,
              -38.5237034
            ],
            [
              144.9952337,
              -38.5380868
            ],
            [
              144.9754,
              -38.5418
            ],
            [
              144.9533,
              -38.5546
            ],
            [
              144.9311,
              -38.5543
            ],
            [
              144.8606,
              -38.5197
            ],
            [
              144.8021,
              -38.4708
            ],
            [
              144.6779,
              -38.3522
            ],
            [
              144.6777,
              -38.3519
            ],
            [
              144.6775,
              -38.3517
            ],
            [
              144.6774,
              -38.3515
            ],
            [
              144.6772,
              -38.3512
            ],
            [
              144.6771,
              -38.3509
            ],
            [
              144.6771,
              -38.3506
            ],
            [
              144.677,
              -38.3503
            ],
            [
              144.677,
              -38.35
            ],
            [
              144.6450112,
              -38.3011654
            ],
            [
              144.677,
              -38.2897
            ],
            [
              144.6771,
              -38.2894
            ],
            [
              144.6771,
              -38.2891
            ],
            [
              144.6772,
              -38.2888
            ],
            [
              144.6774,
              -38.2886
            ],
            [
              144.6775,
              -38.2883
            ],
            [
              144.6777,
              -38.2881
            ],
            [
              144.6779,
              -38.2879
            ],
            [
              144.6781,
              -38.2877
            ],
            [
              144.6784,
              -38.2875
            ],
            [
              144.6786,
              -38.2873
            ],
            [
              144.6789,
              -38.2872
            ],
            [
              144.6792,
              -38.2871
            ],
            [
              144.6795,
              -38.287
            ],
            [
              144.6798,
              -38.287
            ],
            [
              144.6801,
              -38.287
            ],
            [
              144.6804,
              -38.287
            ],
            [
              144.6807,
              -38.2871
            ],
            [
              144.6809,
              -38.2872
            ],
            [
              144.7996,
              -38.3267
            ],
            [
              144.809,
              -38.3335
            ],
            [
              144.8834,
              -38.3279
            ],
            [
              144.9483,
              -38.306
            ],
            [
              144.9565,
              -38.2788
            ],
            [
              144.9853,
              -38.2543
            ],
            [
              145.0001,
              -38.2225
            ],
            [
              145.0794,
              -38.1364
            ],
            [
              145.0844,
              -38.1209
            ],
            [
              145.0824,
              -38.101
            ],
            [
              145.0711,
              -38.0776
            ],
            [
              145.0524,
              -38.0581
            ],
            [
              145.0241,
              -38.0498
            ],
            [
              144.9923,
              -38.0261
            ],
            [
              144.967,
              -37.9855
            ],
            [
              144.9621,
              -37.9763
            ]
          ]
        ]
      }
    },
    {
      "type": "Feature",
      "properties": {
        "distributor": "AusNet Services",
        "state": "VIC",
        "outageUrl": "https://www.outagetracker.com.au/",
        "color": "#1abc9c"
      },
      "geometry": {
        "type": "Polygon",
        "coordinates": [
          [
            [
              149.9766117,
              -37.5052053
            ],
            [
              149.9651319,
              -37.5178364
            ],
            [
              149.9332,
              -37.5376
            ],
            [
              149.9313786,
              -37.5583349
            ],
            [
              149.9263243,
              -37.5670655
            ],
            [
              149.922778,
              -37.5761002
            ],
            [
              149.9078328,
              -37.5881447
            ],
            [
              149.901684,
              -37.5901704
            ],
            [
              149.895098,
              -37.5909732
            ],
            [
              149.8864856,
              -37.5903711
            ],
            [
              149.8772588,
              -37.589597
            ],
            [
              149.8645934,
              -37.5875898
            ],
            [
              149.8455952,
              -37.5869876
            ],
            [
              149.8195045,
              -37.5922063
            ],
            [
              149.809,
              -37.5997
            ],
            [
              149.8003,
              -37.6136
            ],
            [
              149.7955,
              -37.6183
            ],
            [
              149.7614,
              -37.6479
            ],
            [
              149.7471,
              -37.6772
            ],
            [
              149.6937,
              -37.7358
            ],
            [
              149.6799,
              -37.743
            ],
            [
              149.6767,
              -37.7439
            ],
            [
              149.639,
              -37.7517
            ],
            [
              149.6105,
              -37.776
            ],
            [
              149.5469,
              -37.789
            ],
            [
              149.5231,
              -37.8145
            ],
            [
              149.4887,
              -37.8303
            ],
            [
              149.3481,
              -37.8314
            ],
            [
              149.3223,
              -37.8385
            ],
            [
              149.2989,
              -37.8608
            ],
            [
              149.2745,
              -37.8686
            ],
            [
              149.2498,
              -37.8617
            ],
            [
              149.2218,
              -37.8348
            ],
            [
              149.1694,
              -37.8347
            ],
            [
              149.1295,
              -37.8258
            ],
            [
              149.0982,
              -37.8346
            ],
            [
              148.9463,
              -37.8348
            ],
            [
              148.907,
              -37.8414
            ],
            [
              148.7965,
              -37.8431
            ],
            [
              148.7269,
              -37.8684
            ],
            [
              148.6027,
              -37.8568
            ],
            [
              148.3104,
              -37.8684
            ],
            [
              148.1393,
              -37.9012
            ],
            [
              147.9316,
              -37.9606
            ],
            [
              147.7779,
              -38.0261
            ],
            [
              147.6131,
              -38.1183
            ],
            [
              147.4221,
              -38.256
            ],
            [
              147.2109,
              -38.4322
            ],
            [
              147.1109,
              -38.5077
            ],
            [
              147.0127,
              -38.6063
            ],
            [
              146.9142,
              -38.6726
            ],
            [
              146.8732,
              -38.7215
            ],
            [
              146.8533,
              -38.7293
            ],
            [
              146.8252,
              -38.7266
            ],
            [
              146.8095,
              -38.7191
            ],
            [
              146.7976,
              -38.7058
            ],
            [
              146.6925,
              -38.7245
            ],
            [
              146.7014,
              -38.7397
            ],
            [
              146.7034,
              -38.7486
            ],
            [
              146.7042,
              -38.7644
            ],
            [
              146.6936,
              -38.7872
            ],
            [
              146.6876,
              -38.7969
            ],
            [
              146.6786,
              -38.8061
            ],
            [
              146.6521,
              -38.8154
            ],
            [
              146.6035,
              -38.8147
            ],
            [
              146.5859,
              -38.8324
            ],
            [
              146.5669,
              -38.8405
            ],
            [
              146.5365,
              -38.8429
            ],
            [
              146.5143,
              -38.8366
            ],
            [
              146.5143,
              -38.8646
            ],
            [
              146.5284,
              -38.8946
            ],
            [
              146.5279,
              -38.933
            ],
            [
              146.5192,
              -38.9521
            ],
            [
              146.4916,
              -38.9775
            ],
            [
              146.4897,
              -38.9861
            ],
            [
              146.5048,
              -39.0019
            ],
            [
              146.5264,
              -39.0505
            ],
            [
              146.5258,
              -39.0804
            ],
            [
              146.5136,
              -39.0982
            ],
            [
              146.4851,
              -39.1137
            ],
            [
              146.4787,
              -39.1437
            ],
            [
              146.4668,
              -39.1607
            ],
            [
              146.4277,
              -39.1844
            ],
            [
              146.3978,
              -39.1905
            ],
            [
              146.3842,
              -39.1893
            ],
            [
              146.3723,
              -39.1855
            ],
            [
              146.3302,
              -39.169
            ],
            [
              146.2945,
              -39.138
            ],
            [
              146.2813,
              -39.1146
            ],
            [
              146.2767,
              -39.0891
            ],
            [
              146.2793,
              -39.0732
            ],
            [
              146.2569,
              -39.0588
            ],
            [
              146.226,
              -39.0194
            ],
            [
              146.2091,
              -38.9624
            ],
            [
              146.1537,
              -38.905
            ],
            [
              146.0831,
              -38.8666
            ],
            [
              146.0501,
              -38.8718
            ],
            [
              146.0465,
              -38.9129
            ],
            [
              146.0381,
              -38.9255
            ],
            [
              146.0348,
              -38.9289
            ],
            [
              146.0224,
              -38.9373
            ],
            [
              145.9405,
              -38.9543
            ],
            [
              145.914,
              -38.9499
            ],
            [
              145.9074,
              -38.9481
            ],
            [
              145.8941,
              -38.9412
            ],
            [
              145.8809,
              -38.9242
            ],
            [
              145.8558,
              -38.849
            ],
            [
              145.8167,
              -38.7849
            ],
            [
              145.7883,
              -38.7494
            ],
            [
              145.7213,
              -38.6875
            ],
            [
              145.6514,
              -38.7218
            ],
            [
              145.5907,
              -38.7241
            ],
            [
              145.5375,
              -38.693
            ],
            [
              145.4851,
              -38.6145
            ],
            [
              145.4339,
              -38.593
            ],
            [
              145.3959,
              -38.5859
            ],
            [
              145.3777,
              -38.6094
            ],
            [
              145.3521,
              -38.6166
            ],
            [
              145.3268,
              -38.608
            ],
            [
              145.3005,
              -38.5801
            ],
            [
              145.2576,
              -38.565
            ],
            [
              145.2421,
              -38.5665
            ],
            [
              145.2084,
              -38.5811
            ],
            [
              145.1696,
              -38.569
            ],
            [
              145.1047,
              -38.5755
            ],
            [
              145.0902,
              -38.57
            ],
            [
              145.087,
              -38.5681
            ],
            [
              145.0756,
              -38.5574
            ],
            [
              145.0673,
              -38.5271
            ],
            [
              145.0487,
              -38.5336
            ],
            [
              145.0370079,
              -38.5325341
            ],
            [
              145.0278146,
              -38.5245851
            ],
            [
              145.0287823,
              -38.5211781
            ],
            [
              145.0384407,
              -38.4880004
            ],
            [
              145.0512,
              -38.4428
            ],
            [
              145.1819326,
              -38.4047756
            ],
            [
              145.2113912,
              -38.4089631
            ],
            [
              145.2246703,
              -38.4092514
            ],
            [
              145.2366318,
              -38.4108572
            ],
            [
              145.2441673,
              -38.4113631
            ],
            [
              145.2596041,
              -38.4157121
            ],
            [
              145.3132082,
              -38.4346641
            ],
            [
              145.3753266,
              -38.4277206
            ],
            [
              145.4182014,
              -38.3947322
            ],
            [
              145.5039638,
              -38.3922923
            ],
            [
              145.5145528,
              -38.3495626
            ],
            [
              145.4890784,
              -38.2929988
            ],
            [
              145.4573555,
              -38.2545102
            ],
            [
              145.4025613,
              -38.247716
            ],
            [
              145.3365192,
              -38.2420451
            ],
            [
              145.319466,
              -38.2422842
            ],
            [
              145.3176388,
              -38.2329559
            ],
            [
              145.306067,
              -38.2293678
            ],
            [
              145.3036308,
              -38.2126208
            ],
            [
              145.2643473,
              -38.2255402
            ],
            [
              145.2838371,
              -38.1380601
            ],
            [
              145.2503286,
              -38.1248392
            ],
            [
              145.2294631,
              -38.1334519
            ],
            [
              145.2204118,
              -38.1213464
            ],
            [
              145.2488631,
              -38.012684
            ],
            [
              145.2705797,
              -38.0184572
            ],
            [
              145.2816238,
              -37.9689869
            ],
            [
              145.2558508,
              -37.9516804
            ],
            [
              145.2573868,
              -37.9280373
            ],
            [
              145.2332283,
              -37.9272398
            ],
            [
              145.2353845,
              -37.9046035
            ],
            [
              145.2302347,
              -37.8731941
            ],
            [
              145.2110425,
              -37.8759393
            ],
            [
              145.2090134,
              -37.8073678
            ],
            [
              145.1511,
              -37.7472
            ],
            [
              145.1508,
              -37.7471
            ],
            [
              145.1505,
              -37.747
            ],
            [
              145.1502,
              -37.747
            ],
            [
              145.1499,
              -37.747
            ],
            [
              145.1414,
              -37.7473
            ],
            [
              145.1029182,
              -37.7516021
            ],
            [
              145.0810691,
              -37.7553951
            ],
            [
              145.0978246,
              -37.746095
            ],
            [
              145.1145845,
              -37.7305408
            ],
            [
              145.1253294,
              -37.7164956
            ],
            [
              145.0545092,
              -37.7080768
            ],
            [
              145.0527969,
              -37.6934681
            ],
            [
              144.9840414,
              -37.6904277
            ],
            [
              144.9613948,
              -37.6348358
            ],
            [
              144.9850339,
              -37.5726704
            ],
            [
              144.9688999,
              -37.5592256
            ],
            [
              144.9312658,
              -37.5558235
            ],
            [
              144.9379785,
              -37.4802182
            ],
            [
              144.901725,
              -37.475859
            ],
            [
              144.9282048,
              -37.3767069
            ],
            [
              144.8506893,
              -37.3387506
            ],
            [
              144.8442289,
              -37.2292006
            ],
            [
              144.9582952,
              -37.2330094
            ],
            [
              145.0471074,
              -36.6685523
            ],
            [
              145.5458397,
              -36.5952846
            ],
            [
              145.8250827,
              -36.4533719
            ],
            [
              145.8073463,
              -36.262028
            ],
            [
              145.9745753,
              -36.2545847
            ],
            [
              146.2102388,
              -36.1163804
            ],
            [
              146.195954,
              -36.0408932
            ],
            [
              146.5,
              -35.95
            ],
            [
              146.92,
              -36.08
            ],
            [
              147.1119943,
              -35.9862773
            ],
            [
              147.3073928,
              -36.0260561
            ],
            [
              147.3876227,
              -35.9391449
            ],
            [
              147.70466,
              -35.9328587
            ],
            [
              147.9,
              -36
            ],
            [
              148.0178154,
              -36.0689529
            ],
            [
              148.0540482,
              -36.2695237
            ],
            [
              148.1148676,
              -36.4591738
            ],
            [
              148.1472184,
              -36.5527859
            ],
            [
              148.21839,
              -36.5953938
            ],
            [
              148.2249226,
              -36.6426752
            ],
            [
              148.1382226,
              -36.769243
            ],
            [
              148.5367838,
              -36.9225042
            ],
            [
              149.6930158,
              -37.3886782
            ],
            [
              149.6841967,
              -37.3913973
            ],
            [
              149.9695,
              -37.5024
            ],
            [
              149.9766117,
              -37.5052053
            ]
          ]
        ]
      }
    },
    {
      "type": "Feature",
      "properties": {
        "distributor": "Powercor Australia",
        "state": "VIC",
        "outageUrl": "https://www.powercor.com.au/power-outages-and-faults/live-outage-map/",
        "color": "#3498db"
      },
      "geometry": {
        "type": "Polygon",
        "coordinates": [
          [
            [
              145.9778319,
              -36.253364
            ],
            [
              145.8072112,
              -36.2619033
            ],
            [
              145.8235349,
              -36.4511041
            ],
            [
              145.544995,
              -36.5923538
            ],
            [
              145.0472487,
              -36.6681742
            ],
            [
              144.9583266,
              -37.2328581
            ],
            [
              144.8443042,
              -37.2291425
            ],
            [
              144.8505154,
              -37.3387366
            ],
            [
              144.9278723,
              -37.3768841
            ],
            [
              144.9020446,
              -37.4757749
            ],
            [
              144.8614386,
              -37.4712547
            ],
            [
              144.8161445,
              -37.509869
            ],
            [
              144.7956548,
              -37.5074457
            ],
            [
              144.788898,
              -37.4742603
            ],
            [
              144.6787257,
              -37.4683788
            ],
            [
              144.6415654,
              -37.4986222
            ],
            [
              144.6395389,
              -37.5108808
            ],
            [
              144.5517474,
              -37.5170057
            ],
            [
              144.5584517,
              -37.577432
            ],
            [
              144.5946623,
              -37.5748024
            ],
            [
              144.5923286,
              -37.5853857
            ],
            [
              144.6197899,
              -37.5952542
            ],
            [
              144.6531212,
              -37.6161353
            ],
            [
              144.6504593,
              -37.624042
            ],
            [
              144.6569607,
              -37.6235284
            ],
            [
              144.6850644,
              -37.6455579
            ],
            [
              144.6784075,
              -37.6766825
            ],
            [
              144.6653775,
              -37.6912453
            ],
            [
              144.7824877,
              -37.7116323
            ],
            [
              144.7692624,
              -37.6951673
            ],
            [
              144.8316794,
              -37.7063185
            ],
            [
              144.8118007,
              -37.774304
            ],
            [
              144.8363827,
              -37.7966949
            ],
            [
              144.8272363,
              -37.8225532
            ],
            [
              144.8495421,
              -37.8247417
            ],
            [
              144.8675627,
              -37.8229595
            ],
            [
              144.8639832,
              -37.8621207
            ],
            [
              144.8252544,
              -37.8820213
            ],
            [
              144.8105913,
              -37.9120003
            ],
            [
              144.7971,
              -37.9507
            ],
            [
              144.7652,
              -38.0032
            ],
            [
              144.5807,
              -38.0886
            ],
            [
              144.5729,
              -38.0963
            ],
            [
              144.5722,
              -38.1176
            ],
            [
              144.6376,
              -38.0826
            ],
            [
              144.6642,
              -38.0801
            ],
            [
              144.7272,
              -38.1068
            ],
            [
              144.7622,
              -38.1369
            ],
            [
              144.7718,
              -38.1654
            ],
            [
              144.7573,
              -38.2333
            ],
            [
              144.7435,
              -38.2509
            ],
            [
              144.7123,
              -38.2615
            ],
            [
              144.6983,
              -38.2773
            ],
            [
              144.6809,
              -38.2872
            ],
            [
              144.6807,
              -38.2871
            ],
            [
              144.6804,
              -38.287
            ],
            [
              144.6801,
              -38.287
            ],
            [
              144.6798,
              -38.287
            ],
            [
              144.6795,
              -38.287
            ],
            [
              144.6792,
              -38.2871
            ],
            [
              144.6789,
              -38.2872
            ],
            [
              144.6786,
              -38.2873
            ],
            [
              144.6784,
              -38.2875
            ],
            [
              144.6781,
              -38.2877
            ],
            [
              144.6779,
              -38.2879
            ],
            [
              144.6777,
              -38.2881
            ],
            [
              144.6775,
              -38.2883
            ],
            [
              144.6774,
              -38.2886
            ],
            [
              144.6772,
              -38.2888
            ],
            [
              144.6771,
              -38.2891
            ],
            [
              144.6771,
              -38.2894
            ],
            [
              144.677,
              -38.2897
            ],
            [
              144.6450543,
              -38.3010805
            ],
            [
              144.677,
              -38.35
            ],
            [
              144.677,
              -38.3503
            ],
            [
              144.6771,
              -38.3506
            ],
            [
              144.6771,
              -38.3509
            ],
            [
              144.6772,
              -38.3512
            ],
            [
              144.6774,
              -38.3515
            ],
            [
              144.6775,
              -38.3517
            ],
            [
              144.6777,
              -38.3519
            ],
            [
              144.6779,
              -38.3522
            ],
            [
              144.6372,
              -38.355
            ],
            [
              144.6363,
              -38.3537
            ],
            [
              144.6315,
              -38.3353
            ],
            [
              144.5393,
              -38.3351
            ],
            [
              144.5048,
              -38.3481
            ],
            [
              144.4779,
              -38.3463
            ],
            [
              144.4661,
              -38.3442
            ],
            [
              144.4441,
              -38.3368
            ],
            [
              144.4206,
              -38.3432
            ],
            [
              144.3346,
              -38.3945
            ],
            [
              144.2824,
              -38.4344
            ],
            [
              144.2384,
              -38.447
            ],
            [
              144.2087,
              -38.4742
            ],
            [
              144.1622,
              -38.4868
            ],
            [
              144.1397,
              -38.5066
            ],
            [
              144.0801,
              -38.5222
            ],
            [
              144.0446,
              -38.5544
            ],
            [
              144.0417,
              -38.5725
            ],
            [
              144.0255,
              -38.5988
            ],
            [
              144.0137,
              -38.6073
            ],
            [
              144.0037,
              -38.6117
            ],
            [
              143.967,
              -38.6242
            ],
            [
              143.9384,
              -38.6755
            ],
            [
              143.9073,
              -38.6946
            ],
            [
              143.8722,
              -38.7272
            ],
            [
              143.8571,
              -38.7346
            ],
            [
              143.851,
              -38.7364
            ],
            [
              143.7338,
              -38.7674
            ],
            [
              143.7077,
              -38.8111
            ],
            [
              143.7033,
              -38.8174
            ],
            [
              143.6925,
              -38.8274
            ],
            [
              143.6769,
              -38.8336
            ],
            [
              143.6569,
              -38.8344
            ],
            [
              143.6374,
              -38.8436
            ],
            [
              143.5996,
              -38.881
            ],
            [
              143.5378,
              -38.9036
            ],
            [
              143.5154,
              -38.8991
            ],
            [
              143.4426,
              -38.8535
            ],
            [
              143.4264,
              -38.8354
            ],
            [
              143.3994,
              -38.8271
            ],
            [
              143.3905,
              -38.8232
            ],
            [
              143.3611,
              -38.8069
            ],
            [
              143.3309,
              -38.801
            ],
            [
              143.2384,
              -38.8074
            ],
            [
              143.2062,
              -38.7978
            ],
            [
              143.165,
              -38.7674
            ],
            [
              143.1569,
              -38.7606
            ],
            [
              143.143,
              -38.7412
            ],
            [
              143.0935,
              -38.7043
            ],
            [
              143.0458,
              -38.6791
            ],
            [
              142.9377,
              -38.6626
            ],
            [
              142.8432,
              -38.6304
            ],
            [
              142.7947,
              -38.62
            ],
            [
              142.7353,
              -38.5747
            ],
            [
              142.6317,
              -38.5116
            ],
            [
              142.4912,
              -38.4434
            ],
            [
              142.4771,
              -38.449
            ],
            [
              142.4674,
              -38.4501
            ],
            [
              142.4518,
              -38.4488
            ],
            [
              142.3857,
              -38.4123
            ],
            [
              142.3082,
              -38.4142
            ],
            [
              142.2857,
              -38.434
            ],
            [
              142.2335,
              -38.4503
            ],
            [
              142.1684,
              -38.444
            ],
            [
              142.0692,
              -38.4046
            ],
            [
              141.9356,
              -38.3279
            ],
            [
              141.9058,
              -38.3277
            ],
            [
              141.8903,
              -38.3259
            ],
            [
              141.8559,
              -38.3155
            ],
            [
              141.7615,
              -38.3078
            ],
            [
              141.7332,
              -38.3115
            ],
            [
              141.6743,
              -38.338
            ],
            [
              141.6873,
              -38.3565
            ],
            [
              141.6968,
              -38.392
            ],
            [
              141.6963,
              -38.4093
            ],
            [
              141.6895,
              -38.4247
            ],
            [
              141.6891,
              -38.4253
            ],
            [
              141.677,
              -38.4371
            ],
            [
              141.661,
              -38.4435
            ],
            [
              141.6087,
              -38.4429
            ],
            [
              141.5935,
              -38.4686
            ],
            [
              141.5751,
              -38.4818
            ],
            [
              141.5527,
              -38.4845
            ],
            [
              141.5214,
              -38.4735
            ],
            [
              141.4797,
              -38.4228
            ],
            [
              141.4632,
              -38.4207
            ],
            [
              141.4436,
              -38.4422
            ],
            [
              141.4162,
              -38.4509
            ],
            [
              141.399,
              -38.4495
            ],
            [
              141.3673,
              -38.4379
            ],
            [
              141.339,
              -38.4168
            ],
            [
              141.3272,
              -38.3932
            ],
            [
              141.3291,
              -38.3712
            ],
            [
              141.351,
              -38.3322
            ],
            [
              141.3454,
              -38.3252
            ],
            [
              141.1887,
              -38.2109
            ],
            [
              141.1145,
              -38.1682
            ],
            [
              140.9991879,
              -38.1255269
            ],
            [
              140.963681,
              -38.1195561
            ],
            [
              140.9684164,
              -38.0556772
            ],
            [
              140.963165,
              -33.9803803
            ],
            [
              141.0207,
              -34.0027
            ],
            [
              141.4837717,
              -34.1703027
            ],
            [
              141.91,
              -34.12
            ],
            [
              142.16,
              -34.2
            ],
            [
              142.5859133,
              -34.6962795
            ],
            [
              143.3317873,
              -34.8209086
            ],
            [
              143.55,
              -35.34
            ],
            [
              144.1987656,
              -35.6965569
            ],
            [
              144.75,
              -36.13
            ],
            [
              145.0250019,
              -35.8533451
            ],
            [
              145.4945116,
              -35.836947
            ],
            [
              145.7688505,
              -35.9797509
            ],
            [
              146.1960283,
              -36.0409698
            ],
            [
              146.209983,
              -36.1165585
            ],
            [
              145.9778319,
              -36.253364
            ]
          ]
        ]
      }
    }
  ]
}